{
  "type": "FeatureCollection",
  "metadata": {
    "source": "Windy Webcams API",
    "country": "TH",
    "radius_km": 30.0,
    "estate_count": 72,
    "camera_count": 121,
    "generated_at": "2026-09-29T11:31:50.245380+00:00"
  },
  "features": [
    {
      "type": "Feature",
      "properties": {
        "CAMERA": "ฉะเชิงเทรา",
        "WEBCAM_ID": "1666409234",
        "TYPE": "CCTV",
        "PROVINCE": "จังหวัดฉะเชิงเทรา",
        "COUNTRY": "ประเทศไทย",
        "IMAGEURL": "https://imgproxy.windy.com/_/preview/plain/current/1666409234/original.jpg?v=2",
        "WEBURL": "https://windy.com/webcams/1666409234",
        "PLAYERURL": "https://webcams.windy.com/webcams/public/embed/player/1666409234/day",
        "STATUS": "ONLINE",
        "NEAREST_ESTATE": "นิคมอุตสาหกรรมทีเอฟดี 1",
        "DISTANCE_KM": 12.84,
        "LAST_UPDATED": "2026-09-29T11:24:59.000Z"
      },
      "geometry": {
        "type": "Point",
        "coordinates": [
          101.0499,
          13.6662
        ]
      }
    },
    {
      "type": "Feature",
      "properties": {
        "CAMERA": "ฉะเชิงเทรา",
        "WEBCAM_ID": "1682777982",
        "TYPE": "CCTV",
        "PROVINCE": "จังหวัดฉะเชิงเทรา",
        "COUNTRY": "ประเทศไทย",
        "IMAGEURL": "https://imgproxy.windy.com/_/preview/plain/current/1682777982/original.jpg?v=2",
        "WEBURL": "https://windy.com/webcams/1682777982",
        "PLAYERURL": "https://webcams.windy.com/webcams/public/embed/player/1682777982/day",
        "STATUS": "ONLINE",
        "NEAREST_ESTATE": "นิคมอุตสาหกรรมทีเอฟดี 1",
        "DISTANCE_KM": 12.86,
        "LAST_UPDATED": "2026-09-29T11:25:04.000Z"
      },
      "geometry": {
        "type": "Point",
        "coordinates": [
          101.05007,
          13.66631
        ]
      }
    },
    {
      "type": "Feature",
      "properties": {
        "CAMERA": "ฉะเชิงเทรา",
        "WEBCAM_ID": "1682778020",
        "TYPE": "CCTV",
        "PROVINCE": "จังหวัดฉะเชิงเทรา",
        "COUNTRY": "ประเทศไทย",
        "IMAGEURL": "https://imgproxy.windy.com/_/preview/plain/current/1682778020/original.jpg?v=2",
        "WEBURL": "https://windy.com/webcams/1682778020",
        "PLAYERURL": "https://webcams.windy.com/webcams/public/embed/player/1682778020/day",
        "STATUS": "ONLINE",
        "NEAREST_ESTATE": "นิคมอุตสาหกรรมทีเอฟดี 1",
        "DISTANCE_KM": 12.86,
        "LAST_UPDATED": "2026-09-29T11:23:10.000Z"
      },
      "geometry": {
        "type": "Point",
        "coordinates": [
          101.05007,
          13.66629
        ]
      }
    },
    {
      "type": "Feature",
      "properties": {
        "CAMERA": "ฉะเชิงเทรา",
        "WEBCAM_ID": "1682778159",
        "TYPE": "CCTV",
        "PROVINCE": "จังหวัดฉะเชิงเทรา",
        "COUNTRY": "ประเทศไทย",
        "IMAGEURL": "https://imgproxy.windy.com/_/preview/plain/current/1682778159/original.jpg?v=2",
        "WEBURL": "https://windy.com/webcams/1682778159",
        "PLAYERURL": "https://webcams.windy.com/webcams/public/embed/player/1682778159/day",
        "STATUS": "ONLINE",
        "NEAREST_ESTATE": "นิคมอุตสาหกรรมทีเอฟดี 1",
        "DISTANCE_KM": 13.36,
        "LAST_UPDATED": "2026-09-29T11:24:37.000Z"
      },
      "geometry": {
        "type": "Point",
        "coordinates": [
          101.05508,
          13.66871
        ]
      }
    },
    {
      "type": "Feature",
      "properties": {
        "CAMERA": "ฉะเชิงเทรา",
        "WEBCAM_ID": "1682778124",
        "TYPE": "CCTV",
        "PROVINCE": "จังหวัดฉะเชิงเทรา",
        "COUNTRY": "ประเทศไทย",
        "IMAGEURL": "https://imgproxy.windy.com/_/preview/plain/current/1682778124/original.jpg?v=2",
        "WEBURL": "https://windy.com/webcams/1682778124",
        "PLAYERURL": "https://webcams.windy.com/webcams/public/embed/player/1682778124/day",
        "STATUS": "ONLINE",
        "NEAREST_ESTATE": "นิคมอุตสาหกรรมทีเอฟดี 1",
        "DISTANCE_KM": 13.37,
        "LAST_UPDATED": "2026-09-29T11:23:10.000Z"
      },
      "geometry": {
        "type": "Point",
        "coordinates": [
          101.05511,
          13.66889
        ]
      }
    },
    {
      "type": "Feature",
      "properties": {
        "CAMERA": "ฉะเชิงเทรา: Changwatana, Bangkok",
        "WEBCAM_ID": "1302885781",
        "TYPE": "CCTV",
        "PROVINCE": "จังหวัดฉะเชิงเทรา",
        "COUNTRY": "ประเทศไทย",
        "IMAGEURL": "https://imgproxy.windy.com/_/preview/plain/current/1302885781/original.jpg?v=2",
        "WEBURL": "https://windy.com/webcams/1302885781",
        "PLAYERURL": "https://webcams.windy.com/webcams/public/embed/player/1302885781/day",
        "STATUS": "ONLINE",
        "NEAREST_ESTATE": "นิคมอุตสาหกรรมทีเอฟดี 1",
        "DISTANCE_KM": 13.37,
        "LAST_UPDATED": "2026-09-29T11:23:21.000Z"
      },
      "geometry": {
        "type": "Point",
        "coordinates": [
          101.05505,
          13.66887
        ]
      }
    },
    {
      "type": "Feature",
      "properties": {
        "CAMERA": "ฉะเชิงเทรา",
        "WEBCAM_ID": "1682778212",
        "TYPE": "CCTV",
        "PROVINCE": "จังหวัดฉะเชิงเทรา",
        "COUNTRY": "ประเทศไทย",
        "IMAGEURL": "https://imgproxy.windy.com/_/preview/plain/current/1682778212/original.jpg?v=2",
        "WEBURL": "https://windy.com/webcams/1682778212",
        "PLAYERURL": "https://webcams.windy.com/webcams/public/embed/player/1682778212/day",
        "STATUS": "ONLINE",
        "NEAREST_ESTATE": "นิคมอุตสาหกรรมทีเอฟดี 1",
        "DISTANCE_KM": 13.88,
        "LAST_UPDATED": "2026-09-29T11:24:15.000Z"
      },
      "geometry": {
        "type": "Point",
        "coordinates": [
          101.06004,
          13.67137
        ]
      }
    },
    {
      "type": "Feature",
      "properties": {
        "CAMERA": "ฉะเชิงเทรา",
        "WEBCAM_ID": "1643023392",
        "TYPE": "CCTV",
        "PROVINCE": "จังหวัดฉะเชิงเทรา",
        "COUNTRY": "ประเทศไทย",
        "IMAGEURL": "https://imgproxy.windy.com/_/preview/plain/current/1643023392/original.jpg?v=2",
        "WEBURL": "https://windy.com/webcams/1643023392",
        "PLAYERURL": "https://webcams.windy.com/webcams/public/embed/player/1643023392/day",
        "STATUS": "ONLINE",
        "NEAREST_ESTATE": "นิคมอุตสาหกรรมทีเอฟดี 1",
        "DISTANCE_KM": 14.81,
        "LAST_UPDATED": "2026-09-29T11:23:12.000Z"
      },
      "geometry": {
        "type": "Point",
        "coordinates": [
          101.06928,
          13.67568
        ]
      }
    },
    {
      "type": "Feature",
      "properties": {
        "CAMERA": "ฉะเชิงเทรา",
        "WEBCAM_ID": "1682778449",
        "TYPE": "CCTV",
        "PROVINCE": "จังหวัดฉะเชิงเทรา",
        "COUNTRY": "ประเทศไทย",
        "IMAGEURL": "https://imgproxy.windy.com/_/preview/plain/current/1682778449/original.jpg?v=2",
        "WEBURL": "https://windy.com/webcams/1682778449",
        "PLAYERURL": "https://webcams.windy.com/webcams/public/embed/player/1682778449/day",
        "STATUS": "ONLINE",
        "NEAREST_ESTATE": "นิคมอุตสาหกรรมทีเอฟดี 1",
        "DISTANCE_KM": 14.81,
        "LAST_UPDATED": "2026-09-29T11:24:12.000Z"
      },
      "geometry": {
        "type": "Point",
        "coordinates": [
          101.06912,
          13.67581
        ]
      }
    },
    {
      "type": "Feature",
      "properties": {
        "CAMERA": "ฉะเชิงเทรา",
        "WEBCAM_ID": "1682778482",
        "TYPE": "CCTV",
        "PROVINCE": "จังหวัดฉะเชิงเทรา",
        "COUNTRY": "ประเทศไทย",
        "IMAGEURL": "https://imgproxy.windy.com/_/preview/plain/current/1682778482/original.jpg?v=2",
        "WEBURL": "https://windy.com/webcams/1682778482",
        "PLAYERURL": "https://webcams.windy.com/webcams/public/embed/player/1682778482/day",
        "STATUS": "ONLINE",
        "NEAREST_ESTATE": "นิคมอุตสาหกรรมทีเอฟดี 1",
        "DISTANCE_KM": 14.83,
        "LAST_UPDATED": "2026-09-29T11:23:58.000Z"
      },
      "geometry": {
        "type": "Point",
        "coordinates": [
          101.06949,
          13.67577
        ]
      }
    },
    {
      "type": "Feature",
      "properties": {
        "CAMERA": "ฉะเชิงเทรา",
        "WEBCAM_ID": "1682778514",
        "TYPE": "CCTV",
        "PROVINCE": "จังหวัดฉะเชิงเทรา",
        "COUNTRY": "ประเทศไทย",
        "IMAGEURL": "https://imgproxy.windy.com/_/preview/plain/current/1682778514/original.jpg?v=2",
        "WEBURL": "https://windy.com/webcams/1682778514",
        "PLAYERURL": "https://webcams.windy.com/webcams/public/embed/player/1682778514/day",
        "STATUS": "ONLINE",
        "NEAREST_ESTATE": "นิคมอุตสาหกรรมทีเอฟดี 1",
        "DISTANCE_KM": 14.86,
        "LAST_UPDATED": "2026-09-29T11:23:12.000Z"
      },
      "geometry": {
        "type": "Point",
        "coordinates": [
          101.06944,
          13.67606
        ]
      }
    },
    {
      "type": "Feature",
      "properties": {
        "CAMERA": "ฉะเชิงเทรา",
        "WEBCAM_ID": "1682778573",
        "TYPE": "CCTV",
        "PROVINCE": "จังหวัดฉะเชิงเทรา",
        "COUNTRY": "ประเทศไทย",
        "IMAGEURL": "https://imgproxy.windy.com/_/preview/plain/current/1682778573/original.jpg?v=2",
        "WEBURL": "https://windy.com/webcams/1682778573",
        "PLAYERURL": "https://webcams.windy.com/webcams/public/embed/player/1682778573/day",
        "STATUS": "ONLINE",
        "NEAREST_ESTATE": "นิคมอุตสาหกรรมทีเอฟดี 1",
        "DISTANCE_KM": 14.97,
        "LAST_UPDATED": "2026-09-29T11:24:27.000Z"
      },
      "geometry": {
        "type": "Point",
        "coordinates": [
          101.06845,
          13.67788
        ]
      }
    },
    {
      "type": "Feature",
      "properties": {
        "CAMERA": "ฉะเชิงเทรา: Bangsue, Bangkok",
        "WEBCAM_ID": "1302885784",
        "TYPE": "CCTV",
        "PROVINCE": "จังหวัดฉะเชิงเทรา",
        "COUNTRY": "ประเทศไทย",
        "IMAGEURL": "https://imgproxy.windy.com/_/preview/plain/current/1302885784/original.jpg?v=2",
        "WEBURL": "https://windy.com/webcams/1302885784",
        "PLAYERURL": "https://webcams.windy.com/webcams/public/embed/player/1302885784/day",
        "STATUS": "ONLINE",
        "NEAREST_ESTATE": "นิคมอุตสาหกรรมทีเอฟดี 1",
        "DISTANCE_KM": 14.99,
        "LAST_UPDATED": "2026-09-29T11:23:50.000Z"
      },
      "geometry": {
        "type": "Point",
        "coordinates": [
          101.06863,
          13.67795
        ]
      }
    },
    {
      "type": "Feature",
      "properties": {
        "CAMERA": "ฉะเชิงเทรา",
        "WEBCAM_ID": "1682778634",
        "TYPE": "CCTV",
        "PROVINCE": "จังหวัดฉะเชิงเทรา",
        "COUNTRY": "ประเทศไทย",
        "IMAGEURL": "https://imgproxy.windy.com/_/preview/plain/current/1682778634/original.jpg?v=2",
        "WEBURL": "https://windy.com/webcams/1682778634",
        "PLAYERURL": "https://webcams.windy.com/webcams/public/embed/player/1682778634/day",
        "STATUS": "ONLINE",
        "NEAREST_ESTATE": "นิคมอุตสาหกรรมทีเอฟดี 1",
        "DISTANCE_KM": 15.17,
        "LAST_UPDATED": "2026-09-29T11:24:16.000Z"
      },
      "geometry": {
        "type": "Point",
        "coordinates": [
          101.06749,
          13.68057
        ]
      }
    },
    {
      "type": "Feature",
      "properties": {
        "CAMERA": "ฉะเชิงเทรา",
        "WEBCAM_ID": "1682778673",
        "TYPE": "CCTV",
        "PROVINCE": "จังหวัดฉะเชิงเทรา",
        "COUNTRY": "ประเทศไทย",
        "IMAGEURL": "https://imgproxy.windy.com/_/preview/plain/current/1682778673/original.jpg?v=2",
        "WEBURL": "https://windy.com/webcams/1682778673",
        "PLAYERURL": "https://webcams.windy.com/webcams/public/embed/player/1682778673/day",
        "STATUS": "ONLINE",
        "NEAREST_ESTATE": "นิคมอุตสาหกรรมทีเอฟดี 1",
        "DISTANCE_KM": 15.21,
        "LAST_UPDATED": "2026-09-29T11:19:58.000Z"
      },
      "geometry": {
        "type": "Point",
        "coordinates": [
          101.06734,
          13.6811
        ]
      }
    },
    {
      "type": "Feature",
      "properties": {
        "CAMERA": "ฉะเชิงเทรา",
        "WEBCAM_ID": "1682778715",
        "TYPE": "CCTV",
        "PROVINCE": "จังหวัดฉะเชิงเทรา",
        "COUNTRY": "ประเทศไทย",
        "IMAGEURL": "https://imgproxy.windy.com/_/preview/plain/current/1682778715/original.jpg?v=2",
        "WEBURL": "https://windy.com/webcams/1682778715",
        "PLAYERURL": "https://webcams.windy.com/webcams/public/embed/player/1682778715/day",
        "STATUS": "ONLINE",
        "NEAREST_ESTATE": "นิคมอุตสาหกรรมทีเอฟดี 1",
        "DISTANCE_KM": 15.29,
        "LAST_UPDATED": "2026-09-29T11:24:41.000Z"
      },
      "geometry": {
        "type": "Point",
        "coordinates": [
          101.06686,
          13.68215
        ]
      }
    },
    {
      "type": "Feature",
      "properties": {
        "CAMERA": "ฉะเชิงเทรา",
        "WEBCAM_ID": "1682778766",
        "TYPE": "CCTV",
        "PROVINCE": "จังหวัดฉะเชิงเทรา",
        "COUNTRY": "ประเทศไทย",
        "IMAGEURL": "https://imgproxy.windy.com/_/preview/plain/current/1682778766/original.jpg?v=2",
        "WEBURL": "https://windy.com/webcams/1682778766",
        "PLAYERURL": "https://webcams.windy.com/webcams/public/embed/player/1682778766/day",
        "STATUS": "ONLINE",
        "NEAREST_ESTATE": "นิคมอุตสาหกรรมทีเอฟดี 1",
        "DISTANCE_KM": 15.3,
        "LAST_UPDATED": "2026-09-29T11:23:42.000Z"
      },
      "geometry": {
        "type": "Point",
        "coordinates": [
          101.0668,
          13.68236
        ]
      }
    },
    {
      "type": "Feature",
      "properties": {
        "CAMERA": "ฉะเชิงเทรา",
        "WEBCAM_ID": "1682778820",
        "TYPE": "CCTV",
        "PROVINCE": "จังหวัดฉะเชิงเทรา",
        "COUNTRY": "ประเทศไทย",
        "IMAGEURL": "https://imgproxy.windy.com/_/preview/plain/current/1682778820/original.jpg?v=2",
        "WEBURL": "https://windy.com/webcams/1682778820",
        "PLAYERURL": "https://webcams.windy.com/webcams/public/embed/player/1682778820/day",
        "STATUS": "ONLINE",
        "NEAREST_ESTATE": "นิคมอุตสาหกรรมทีเอฟดี 1",
        "DISTANCE_KM": 15.34,
        "LAST_UPDATED": "2026-09-29T11:20:43.000Z"
      },
      "geometry": {
        "type": "Point",
        "coordinates": [
          101.06658,
          13.68288
        ]
      }
    },
    {
      "type": "Feature",
      "properties": {
        "CAMERA": "ฉะเชิงเทรา",
        "WEBCAM_ID": "1682778871",
        "TYPE": "CCTV",
        "PROVINCE": "จังหวัดฉะเชิงเทรา",
        "COUNTRY": "ประเทศไทย",
        "IMAGEURL": "https://imgproxy.windy.com/_/preview/plain/current/1682778871/original.jpg?v=2",
        "WEBURL": "https://windy.com/webcams/1682778871",
        "PLAYERURL": "https://webcams.windy.com/webcams/public/embed/player/1682778871/day",
        "STATUS": "ONLINE",
        "NEAREST_ESTATE": "นิคมอุตสาหกรรมทีเอฟดี 1",
        "DISTANCE_KM": 15.34,
        "LAST_UPDATED": "2026-09-29T11:22:48.000Z"
      },
      "geometry": {
        "type": "Point",
        "coordinates": [
          101.06656,
          13.68285
        ]
      }
    },
    {
      "type": "Feature",
      "properties": {
        "CAMERA": "ฉะเชิงเทรา",
        "WEBCAM_ID": "1682778917",
        "TYPE": "CCTV",
        "PROVINCE": "จังหวัดฉะเชิงเทรา",
        "COUNTRY": "ประเทศไทย",
        "IMAGEURL": "https://imgproxy.windy.com/_/preview/plain/current/1682778917/original.jpg?v=2",
        "WEBURL": "https://windy.com/webcams/1682778917",
        "PLAYERURL": "https://webcams.windy.com/webcams/public/embed/player/1682778917/day",
        "STATUS": "ONLINE",
        "NEAREST_ESTATE": "นิคมอุตสาหกรรมทีเอฟดี 1",
        "DISTANCE_KM": 15.46,
        "LAST_UPDATED": "2026-09-29T11:23:40.000Z"
      },
      "geometry": {
        "type": "Point",
        "coordinates": [
          101.06605,
          13.68447
        ]
      }
    },
    {
      "type": "Feature",
      "properties": {
        "CAMERA": "ฉะเชิงเทรา",
        "WEBCAM_ID": "1682778973",
        "TYPE": "CCTV",
        "PROVINCE": "จังหวัดฉะเชิงเทรา",
        "COUNTRY": "ประเทศไทย",
        "IMAGEURL": "https://imgproxy.windy.com/_/preview/plain/current/1682778973/original.jpg?v=2",
        "WEBURL": "https://windy.com/webcams/1682778973",
        "PLAYERURL": "https://webcams.windy.com/webcams/public/embed/player/1682778973/day",
        "STATUS": "ONLINE",
        "NEAREST_ESTATE": "นิคมอุตสาหกรรมทีเอฟดี 1",
        "DISTANCE_KM": 15.68,
        "LAST_UPDATED": "2026-09-29T11:23:23.000Z"
      },
      "geometry": {
        "type": "Point",
        "coordinates": [
          101.06466,
          13.68747
        ]
      }
    },
    {
      "type": "Feature",
      "properties": {
        "CAMERA": "ฉะเชิงเทรา",
        "WEBCAM_ID": "1682779011",
        "TYPE": "CCTV",
        "PROVINCE": "จังหวัดฉะเชิงเทรา",
        "COUNTRY": "ประเทศไทย",
        "IMAGEURL": "https://imgproxy.windy.com/_/preview/plain/current/1682779011/original.jpg?v=2",
        "WEBURL": "https://windy.com/webcams/1682779011",
        "PLAYERURL": "https://webcams.windy.com/webcams/public/embed/player/1682779011/day",
        "STATUS": "ONLINE",
        "NEAREST_ESTATE": "นิคมอุตสาหกรรมทีเอฟดี 1",
        "DISTANCE_KM": 15.71,
        "LAST_UPDATED": "2026-09-29T11:22:48.000Z"
      },
      "geometry": {
        "type": "Point",
        "coordinates": [
          101.06469,
          13.68774
        ]
      }
    },
    {
      "type": "Feature",
      "properties": {
        "CAMERA": "ฉะเชิงเทรา",
        "WEBCAM_ID": "1682779054",
        "TYPE": "CCTV",
        "PROVINCE": "จังหวัดฉะเชิงเทรา",
        "COUNTRY": "ประเทศไทย",
        "IMAGEURL": "https://imgproxy.windy.com/_/preview/plain/current/1682779054/original.jpg?v=2",
        "WEBURL": "https://windy.com/webcams/1682779054",
        "PLAYERURL": "https://webcams.windy.com/webcams/public/embed/player/1682779054/day",
        "STATUS": "ONLINE",
        "NEAREST_ESTATE": "นิคมอุตสาหกรรมทีเอฟดี 1",
        "DISTANCE_KM": 15.77,
        "LAST_UPDATED": "2026-09-29T11:20:42.000Z"
      },
      "geometry": {
        "type": "Point",
        "coordinates": [
          101.0643,
          13.68858
        ]
      }
    },
    {
      "type": "Feature",
      "properties": {
        "CAMERA": "ฉะเชิงเทรา",
        "WEBCAM_ID": "1682779089",
        "TYPE": "CCTV",
        "PROVINCE": "จังหวัดฉะเชิงเทรา",
        "COUNTRY": "ประเทศไทย",
        "IMAGEURL": "https://imgproxy.windy.com/_/preview/plain/current/1682779089/original.jpg?v=2",
        "WEBURL": "https://windy.com/webcams/1682779089",
        "PLAYERURL": "https://webcams.windy.com/webcams/public/embed/player/1682779089/day",
        "STATUS": "ONLINE",
        "NEAREST_ESTATE": "นิคมอุตสาหกรรมทีเอฟดี 1",
        "DISTANCE_KM": 15.78,
        "LAST_UPDATED": "2026-09-29T11:21:48.000Z"
      },
      "geometry": {
        "type": "Point",
        "coordinates": [
          101.06419,
          13.6887
        ]
      }
    },
    {
      "type": "Feature",
      "properties": {
        "CAMERA": "ฉะเชิงเทรา",
        "WEBCAM_ID": "1682779133",
        "TYPE": "CCTV",
        "PROVINCE": "จังหวัดฉะเชิงเทรา",
        "COUNTRY": "ประเทศไทย",
        "IMAGEURL": "https://imgproxy.windy.com/_/preview/plain/current/1682779133/original.jpg?v=2",
        "WEBURL": "https://windy.com/webcams/1682779133",
        "PLAYERURL": "https://webcams.windy.com/webcams/public/embed/player/1682779133/day",
        "STATUS": "ONLINE",
        "NEAREST_ESTATE": "นิคมอุตสาหกรรมทีเอฟดี 1",
        "DISTANCE_KM": 15.89,
        "LAST_UPDATED": "2026-09-29T11:24:12.000Z"
      },
      "geometry": {
        "type": "Point",
        "coordinates": [
          101.06386,
          13.69002
        ]
      }
    },
    {
      "type": "Feature",
      "properties": {
        "CAMERA": "ฉะเชิงเทรา",
        "WEBCAM_ID": "1682779168",
        "TYPE": "CCTV",
        "PROVINCE": "จังหวัดฉะเชิงเทรา",
        "COUNTRY": "ประเทศไทย",
        "IMAGEURL": "https://imgproxy.windy.com/_/preview/plain/current/1682779168/original.jpg?v=2",
        "WEBURL": "https://windy.com/webcams/1682779168",
        "PLAYERURL": "https://webcams.windy.com/webcams/public/embed/player/1682779168/day",
        "STATUS": "ONLINE",
        "NEAREST_ESTATE": "นิคมอุตสาหกรรมทีเอฟดี 1",
        "DISTANCE_KM": 15.92,
        "LAST_UPDATED": "2026-09-29T11:23:15.000Z"
      },
      "geometry": {
        "type": "Point",
        "coordinates": [
          101.06383,
          13.6903
        ]
      }
    },
    {
      "type": "Feature",
      "properties": {
        "CAMERA": "ฉะเชิงเทรา",
        "WEBCAM_ID": "1682779215",
        "TYPE": "CCTV",
        "PROVINCE": "จังหวัดฉะเชิงเทรา",
        "COUNTRY": "ประเทศไทย",
        "IMAGEURL": "https://imgproxy.windy.com/_/preview/plain/current/1682779215/original.jpg?v=2",
        "WEBURL": "https://windy.com/webcams/1682779215",
        "PLAYERURL": "https://webcams.windy.com/webcams/public/embed/player/1682779215/day",
        "STATUS": "ONLINE",
        "NEAREST_ESTATE": "นิคมอุตสาหกรรมทีเอฟดี 1",
        "DISTANCE_KM": 15.99,
        "LAST_UPDATED": "2026-09-29T11:20:42.000Z"
      },
      "geometry": {
        "type": "Point",
        "coordinates": [
          101.06357,
          13.69118
        ]
      }
    },
    {
      "type": "Feature",
      "properties": {
        "CAMERA": "ฉะเชิงเทรา",
        "WEBCAM_ID": "1682779258",
        "TYPE": "CCTV",
        "PROVINCE": "จังหวัดฉะเชิงเทรา",
        "COUNTRY": "ประเทศไทย",
        "IMAGEURL": "https://imgproxy.windy.com/_/preview/plain/current/1682779258/original.jpg?v=2",
        "WEBURL": "https://windy.com/webcams/1682779258",
        "PLAYERURL": "https://webcams.windy.com/webcams/public/embed/player/1682779258/day",
        "STATUS": "ONLINE",
        "NEAREST_ESTATE": "นิคมอุตสาหกรรมทีเอฟดี 1",
        "DISTANCE_KM": 16.0,
        "LAST_UPDATED": "2026-09-29T11:23:54.000Z"
      },
      "geometry": {
        "type": "Point",
        "coordinates": [
          101.06382,
          13.69116
        ]
      }
    },
    {
      "type": "Feature",
      "properties": {
        "CAMERA": "ฉะเชิงเทรา",
        "WEBCAM_ID": "1682777318",
        "TYPE": "CCTV",
        "PROVINCE": "จังหวัดฉะเชิงเทรา",
        "COUNTRY": "ประเทศไทย",
        "IMAGEURL": "https://imgproxy.windy.com/_/preview/plain/current/1682777318/original.jpg?v=2",
        "WEBURL": "https://windy.com/webcams/1682777318",
        "PLAYERURL": "https://webcams.windy.com/webcams/public/embed/player/1682777318/day",
        "STATUS": "ONLINE",
        "NEAREST_ESTATE": "นิคมอุตสาหกรรมทีเอฟดี 1",
        "DISTANCE_KM": 16.29,
        "LAST_UPDATED": "2026-09-29T11:24:41.000Z"
      },
      "geometry": {
        "type": "Point",
        "coordinates": [
          101.06362,
          13.69415
        ]
      }
    },
    {
      "type": "Feature",
      "properties": {
        "CAMERA": "ฉะเชิงเทรา",
        "WEBCAM_ID": "1682777235",
        "TYPE": "CCTV",
        "PROVINCE": "จังหวัดฉะเชิงเทรา",
        "COUNTRY": "ประเทศไทย",
        "IMAGEURL": "https://imgproxy.windy.com/_/preview/plain/current/1682777235/original.jpg?v=2",
        "WEBURL": "https://windy.com/webcams/1682777235",
        "PLAYERURL": "https://webcams.windy.com/webcams/public/embed/player/1682777235/day",
        "STATUS": "ONLINE",
        "NEAREST_ESTATE": "นิคมอุตสาหกรรมทีเอฟดี 1",
        "DISTANCE_KM": 16.29,
        "LAST_UPDATED": "2026-09-29T11:20:43.000Z"
      },
      "geometry": {
        "type": "Point",
        "coordinates": [
          101.0633,
          13.6944
        ]
      }
    },
    {
      "type": "Feature",
      "properties": {
        "CAMERA": "ฉะเชิงเทรา",
        "WEBCAM_ID": "1682777372",
        "TYPE": "CCTV",
        "PROVINCE": "จังหวัดฉะเชิงเทรา",
        "COUNTRY": "ประเทศไทย",
        "IMAGEURL": "https://imgproxy.windy.com/_/preview/plain/current/1682777372/original.jpg?v=2",
        "WEBURL": "https://windy.com/webcams/1682777372",
        "PLAYERURL": "https://webcams.windy.com/webcams/public/embed/player/1682777372/day",
        "STATUS": "ONLINE",
        "NEAREST_ESTATE": "นิคมอุตสาหกรรมทีเอฟดี 1",
        "DISTANCE_KM": 16.3,
        "LAST_UPDATED": "2026-09-29T11:22:48.000Z"
      },
      "geometry": {
        "type": "Point",
        "coordinates": [
          101.06348,
          13.6944
        ]
      }
    },
    {
      "type": "Feature",
      "properties": {
        "CAMERA": "ฉะเชิงเทรา",
        "WEBCAM_ID": "1682777416",
        "TYPE": "CCTV",
        "PROVINCE": "จังหวัดฉะเชิงเทรา",
        "COUNTRY": "ประเทศไทย",
        "IMAGEURL": "https://imgproxy.windy.com/_/preview/plain/current/1682777416/original.jpg?v=2",
        "WEBURL": "https://windy.com/webcams/1682777416",
        "PLAYERURL": "https://webcams.windy.com/webcams/public/embed/player/1682777416/day",
        "STATUS": "ONLINE",
        "NEAREST_ESTATE": "นิคมอุตสาหกรรมทีเอฟดี 1",
        "DISTANCE_KM": 16.3,
        "LAST_UPDATED": "2026-09-29T11:23:13.000Z"
      },
      "geometry": {
        "type": "Point",
        "coordinates": [
          101.0635,
          13.69437
        ]
      }
    },
    {
      "type": "Feature",
      "properties": {
        "CAMERA": "ฉะเชิงเทรา",
        "WEBCAM_ID": "1682777603",
        "TYPE": "CCTV",
        "PROVINCE": "จังหวัดฉะเชิงเทรา",
        "COUNTRY": "ประเทศไทย",
        "IMAGEURL": "https://imgproxy.windy.com/_/preview/plain/current/1682777603/original.jpg?v=2",
        "WEBURL": "https://windy.com/webcams/1682777603",
        "PLAYERURL": "https://webcams.windy.com/webcams/public/embed/player/1682777603/day",
        "STATUS": "ONLINE",
        "NEAREST_ESTATE": "นิคมอุตสาหกรรมทีเอฟดี 1",
        "DISTANCE_KM": 16.4,
        "LAST_UPDATED": "2026-09-29T11:23:19.000Z"
      },
      "geometry": {
        "type": "Point",
        "coordinates": [
          101.07066,
          13.69156
        ]
      }
    },
    {
      "type": "Feature",
      "properties": {
        "CAMERA": "ฉะเชิงเทรา",
        "WEBCAM_ID": "1682777649",
        "TYPE": "CCTV",
        "PROVINCE": "จังหวัดฉะเชิงเทรา",
        "COUNTRY": "ประเทศไทย",
        "IMAGEURL": "https://imgproxy.windy.com/_/preview/plain/current/1682777649/original.jpg?v=2",
        "WEBURL": "https://windy.com/webcams/1682777649",
        "PLAYERURL": "https://webcams.windy.com/webcams/public/embed/player/1682777649/day",
        "STATUS": "ONLINE",
        "NEAREST_ESTATE": "นิคมอุตสาหกรรมทีเอฟดี 1",
        "DISTANCE_KM": 16.4,
        "LAST_UPDATED": "2026-09-29T11:23:34.000Z"
      },
      "geometry": {
        "type": "Point",
        "coordinates": [
          101.07066,
          13.69159
        ]
      }
    },
    {
      "type": "Feature",
      "properties": {
        "CAMERA": "ฉะเชิงเทรา",
        "WEBCAM_ID": "1682777542",
        "TYPE": "CCTV",
        "PROVINCE": "จังหวัดฉะเชิงเทรา",
        "COUNTRY": "ประเทศไทย",
        "IMAGEURL": "https://imgproxy.windy.com/_/preview/plain/current/1682777542/original.jpg?v=2",
        "WEBURL": "https://windy.com/webcams/1682777542",
        "PLAYERURL": "https://webcams.windy.com/webcams/public/embed/player/1682777542/day",
        "STATUS": "ONLINE",
        "NEAREST_ESTATE": "นิคมอุตสาหกรรมทีเอฟดี 1",
        "DISTANCE_KM": 16.52,
        "LAST_UPDATED": "2026-09-29T11:23:28.000Z"
      },
      "geometry": {
        "type": "Point",
        "coordinates": [
          101.07119,
          13.69259
        ]
      }
    },
    {
      "type": "Feature",
      "properties": {
        "CAMERA": "ฉะเชิงเทรา",
        "WEBCAM_ID": "1682777504",
        "TYPE": "CCTV",
        "PROVINCE": "จังหวัดฉะเชิงเทรา",
        "COUNTRY": "ประเทศไทย",
        "IMAGEURL": "https://imgproxy.windy.com/_/preview/plain/current/1682777504/original.jpg?v=2",
        "WEBURL": "https://windy.com/webcams/1682777504",
        "PLAYERURL": "https://webcams.windy.com/webcams/public/embed/player/1682777504/day",
        "STATUS": "ONLINE",
        "NEAREST_ESTATE": "นิคมอุตสาหกรรมทีเอฟดี 1",
        "DISTANCE_KM": 16.52,
        "LAST_UPDATED": "2026-09-29T11:25:08.000Z"
      },
      "geometry": {
        "type": "Point",
        "coordinates": [
          101.07119,
          13.69258
        ]
      }
    },
    {
      "type": "Feature",
      "properties": {
        "CAMERA": "แขวงสายไหม: Save One Go Market",
        "WEBCAM_ID": "1727722205",
        "TYPE": "CCTV",
        "PROVINCE": "กรุงเทพมหานคร",
        "COUNTRY": "ประเทศไทย",
        "IMAGEURL": "https://imgproxy.windy.com/_/preview/plain/current/1727722205/original.jpg?v=2",
        "WEBURL": "https://windy.com/webcams/1727722205",
        "PLAYERURL": "https://webcams.windy.com/webcams/public/embed/player/1727722205/day",
        "STATUS": "ONLINE",
        "NEAREST_ESTATE": "นิคมอุตสาหกรรมบางชัน",
        "DISTANCE_KM": 16.05,
        "LAST_UPDATED": "2026-09-29T11:25:24.000Z"
      },
      "geometry": {
        "type": "Point",
        "coordinates": [
          100.62682,
          13.92684
        ]
      }
    },
    {
      "type": "Feature",
      "properties": {
        "CAMERA": "รังสิต: Rangsit - Nakhon Nayok Road",
        "WEBCAM_ID": "1728490469",
        "TYPE": "CCTV",
        "PROVINCE": "จังหวัดปทุมธานี",
        "COUNTRY": "ประเทศไทย",
        "IMAGEURL": "https://imgproxy.windy.com/_/preview/plain/current/1728490469/original.jpg?v=2",
        "WEBURL": "https://windy.com/webcams/1728490469",
        "PLAYERURL": "https://webcams.windy.com/webcams/public/embed/player/1728490469/day",
        "STATUS": "ONLINE",
        "NEAREST_ESTATE": "นิคมอุตสาหกรรมบางชัน",
        "DISTANCE_KM": 22.01,
        "LAST_UPDATED": "2026-09-29T11:13:18.000Z"
      },
      "geometry": {
        "type": "Point",
        "coordinates": [
          100.62576,
          13.98641
        ]
      }
    },
    {
      "type": "Feature",
      "properties": {
        "CAMERA": "ตำบลเชียงรากน้อย",
        "WEBCAM_ID": "1704110696",
        "TYPE": "CCTV",
        "PROVINCE": "จังหวัดพระนครศรีอยุธยา",
        "COUNTRY": "ประเทศไทย",
        "IMAGEURL": "https://imgproxy.windy.com/_/preview/plain/current/1704110696/original.jpg?v=2",
        "WEBURL": "https://windy.com/webcams/1704110696",
        "PLAYERURL": "https://webcams.windy.com/webcams/public/embed/player/1704110696/day",
        "STATUS": "OFFLINE",
        "NEAREST_ESTATE": "นิคมอุตสาหกรรมบางปะอิน",
        "DISTANCE_KM": 5.43,
        "LAST_UPDATED": "2026-09-28T11:14:28.000Z"
      },
      "geometry": {
        "type": "Point",
        "coordinates": [
          100.61799,
          14.16741
        ]
      }
    },
    {
      "type": "Feature",
      "properties": {
        "CAMERA": "รังสิต: Don Muang Toll Way - Phahonyothin Road - Phahon Yothin Road",
        "WEBCAM_ID": "1717748717",
        "TYPE": "CCTV",
        "PROVINCE": "จังหวัดปทุมธานี",
        "COUNTRY": "ประเทศไทย",
        "IMAGEURL": "https://imgproxy.windy.com/_/preview/plain/current/1717748717/original.jpg?v=2",
        "WEBURL": "https://windy.com/webcams/1717748717",
        "PLAYERURL": "https://webcams.windy.com/webcams/public/embed/player/1717748717/day",
        "STATUS": "OFFLINE",
        "NEAREST_ESTATE": "นิคมอุตสาหกรรมบางปะอิน",
        "DISTANCE_KM": 22.2,
        "LAST_UPDATED": "2026-09-28T11:15:06.000Z"
      },
      "geometry": {
        "type": "Point",
        "coordinates": [
          100.6152,
          14.0096
        ]
      }
    },
    {
      "type": "Feature",
      "properties": {
        "CAMERA": "เชียงใหม่ › ตะวันออก: Wat Chetawan",
        "WEBCAM_ID": "1793916381",
        "TYPE": "CCTV",
        "PROVINCE": "จังหวัดเชียงใหม่",
        "COUNTRY": "ประเทศไทย",
        "IMAGEURL": "https://imgproxy.windy.com/_/preview/plain/current/1793916381/original.jpg?v=2",
        "WEBURL": "https://windy.com/webcams/1793916381",
        "PLAYERURL": "https://webcams.windy.com/webcams/public/embed/player/1793916381/day",
        "STATUS": "ONLINE",
        "NEAREST_ESTATE": "นิคมอุตสาหกรรมภาคเหนือ",
        "DISTANCE_KM": 22.64,
        "LAST_UPDATED": "2026-09-29T11:23:37.000Z"
      },
      "geometry": {
        "type": "Point",
        "coordinates": [
          98.99439,
          18.78967
        ]
      }
    },
    {
      "type": "Feature",
      "properties": {
        "CAMERA": "เชียงใหม่",
        "WEBCAM_ID": "1623054222",
        "TYPE": "CCTV",
        "PROVINCE": "จังหวัดเชียงใหม่",
        "COUNTRY": "ประเทศไทย",
        "IMAGEURL": "https://imgproxy.windy.com/_/preview/plain/current/1623054222/original.jpg?v=2",
        "WEBURL": "https://windy.com/webcams/1623054222",
        "PLAYERURL": "https://webcams.windy.com/webcams/public/embed/player/1623054222/day",
        "STATUS": "ONLINE",
        "NEAREST_ESTATE": "นิคมอุตสาหกรรมภาคเหนือ",
        "DISTANCE_KM": 26.26,
        "LAST_UPDATED": "2026-09-29T11:02:41.000Z"
      },
      "geometry": {
        "type": "Point",
        "coordinates": [
          98.9535,
          18.8115
        ]
      }
    },
    {
      "type": "Feature",
      "properties": {
        "CAMERA": "ควนลัง",
        "WEBCAM_ID": "1701481054",
        "TYPE": "CCTV",
        "PROVINCE": "จังหวัดสงขลา",
        "COUNTRY": "ประเทศไทย",
        "IMAGEURL": "https://imgproxy.windy.com/_/preview/plain/current/1701481054/original.jpg?v=2",
        "WEBURL": "https://windy.com/webcams/1701481054",
        "PLAYERURL": "https://webcams.windy.com/webcams/public/embed/player/1701481054/day",
        "STATUS": "ONLINE",
        "NEAREST_ESTATE": "นิคมอุตสาหกรรมภาคใต้จังหวัดสงขลา",
        "DISTANCE_KM": 7.16,
        "LAST_UPDATED": "2026-09-29T11:24:30.000Z"
      },
      "geometry": {
        "type": "Point",
        "coordinates": [
          100.41981,
          6.98379
        ]
      }
    },
    {
      "type": "Feature",
      "properties": {
        "CAMERA": "หาดใหญ่",
        "WEBCAM_ID": "1732680375",
        "TYPE": "CCTV",
        "PROVINCE": "จังหวัดสงขลา",
        "COUNTRY": "ประเทศไทย",
        "IMAGEURL": "https://imgproxy.windy.com/_/preview/plain/current/1732680375/original.jpg?v=2",
        "WEBURL": "https://windy.com/webcams/1732680375",
        "PLAYERURL": "https://webcams.windy.com/webcams/public/embed/player/1732680375/day",
        "STATUS": "ONLINE",
        "NEAREST_ESTATE": "นิคมอุตสาหกรรมภาคใต้จังหวัดสงขลา",
        "DISTANCE_KM": 9.37,
        "LAST_UPDATED": "2026-09-29T11:13:43.000Z"
      },
      "geometry": {
        "type": "Point",
        "coordinates": [
          100.44448,
          7.00266
        ]
      }
    },
    {
      "type": "Feature",
      "properties": {
        "CAMERA": "หาดใหญ่: Canale - คาแนล",
        "WEBCAM_ID": "1793901460",
        "TYPE": "CCTV",
        "PROVINCE": "จังหวัดสงขลา",
        "COUNTRY": "ประเทศไทย",
        "IMAGEURL": "https://imgproxy.windy.com/_/preview/plain/current/1793901460/original.jpg?v=2",
        "WEBURL": "https://windy.com/webcams/1793901460",
        "PLAYERURL": "https://webcams.windy.com/webcams/public/embed/player/1793901460/day",
        "STATUS": "ONLINE",
        "NEAREST_ESTATE": "นิคมอุตสาหกรรมภาคใต้จังหวัดสงขลา",
        "DISTANCE_KM": 10.63,
        "LAST_UPDATED": "2026-09-29T11:24:18.000Z"
      },
      "geometry": {
        "type": "Point",
        "coordinates": [
          100.45595,
          7.00223
        ]
      }
    },
    {
      "type": "Feature",
      "properties": {
        "CAMERA": "หาดใหญ่ › ตะวันออก",
        "WEBCAM_ID": "1793869185",
        "TYPE": "CCTV",
        "PROVINCE": "จังหวัดสงขลา",
        "COUNTRY": "ประเทศไทย",
        "IMAGEURL": "https://imgproxy.windy.com/_/preview/plain/current/1793869185/original.jpg?v=2",
        "WEBURL": "https://windy.com/webcams/1793869185",
        "PLAYERURL": "https://webcams.windy.com/webcams/public/embed/player/1793869185/day",
        "STATUS": "ONLINE",
        "NEAREST_ESTATE": "นิคมอุตสาหกรรมภาคใต้จังหวัดสงขลา",
        "DISTANCE_KM": 11.71,
        "LAST_UPDATED": "2026-09-29T11:23:40.000Z"
      },
      "geometry": {
        "type": "Point",
        "coordinates": [
          100.46549,
          7.0171
        ]
      }
    },
    {
      "type": "Feature",
      "properties": {
        "CAMERA": "บ้านพรุ",
        "WEBCAM_ID": "1618317401",
        "TYPE": "CCTV",
        "PROVINCE": "จังหวัดสงขลา",
        "COUNTRY": "ประเทศไทย",
        "IMAGEURL": "https://imgproxy.windy.com/_/preview/plain/current/1618317401/original.jpg?v=2",
        "WEBURL": "https://windy.com/webcams/1618317401",
        "PLAYERURL": "https://webcams.windy.com/webcams/public/embed/player/1618317401/day",
        "STATUS": "ONLINE",
        "NEAREST_ESTATE": "นิคมอุตสาหกรรมภาคใต้จังหวัดสงขลา",
        "DISTANCE_KM": 12.27,
        "LAST_UPDATED": "2026-09-29T11:24:01.000Z"
      },
      "geometry": {
        "type": "Point",
        "coordinates": [
          100.43968,
          6.93154
        ]
      }
    },
    {
      "type": "Feature",
      "properties": {
        "CAMERA": "หาดใหญ่",
        "WEBCAM_ID": "1700489636",
        "TYPE": "CCTV",
        "PROVINCE": "จังหวัดสงขลา",
        "COUNTRY": "ประเทศไทย",
        "IMAGEURL": "https://imgproxy.windy.com/_/preview/plain/current/1700489636/original.jpg?v=2",
        "WEBURL": "https://windy.com/webcams/1700489636",
        "PLAYERURL": "https://webcams.windy.com/webcams/public/embed/player/1700489636/day",
        "STATUS": "ONLINE",
        "NEAREST_ESTATE": "นิคมอุตสาหกรรมภาคใต้จังหวัดสงขลา",
        "DISTANCE_KM": 12.86,
        "LAST_UPDATED": "2026-09-29T11:24:58.000Z"
      },
      "geometry": {
        "type": "Point",
        "coordinates": [
          100.47439,
          6.98724
        ]
      }
    },
    {
      "type": "Feature",
      "properties": {
        "CAMERA": "คอหงส์ › ใต้",
        "WEBCAM_ID": "1604680908",
        "TYPE": "CCTV",
        "PROVINCE": "จังหวัดสงขลา",
        "COUNTRY": "ประเทศไทย",
        "IMAGEURL": "https://imgproxy.windy.com/_/preview/plain/current/1604680908/original.jpg?v=2",
        "WEBURL": "https://windy.com/webcams/1604680908",
        "PLAYERURL": "https://webcams.windy.com/webcams/public/embed/player/1604680908/day",
        "STATUS": "ONLINE",
        "NEAREST_ESTATE": "นิคมอุตสาหกรรมภาคใต้จังหวัดสงขลา",
        "DISTANCE_KM": 13.39,
        "LAST_UPDATED": "2026-09-29T11:23:48.000Z"
      },
      "geometry": {
        "type": "Point",
        "coordinates": [
          100.48113,
          7.00729
        ]
      }
    },
    {
      "type": "Feature",
      "properties": {
        "CAMERA": "หาดใหญ่",
        "WEBCAM_ID": "1591521761",
        "TYPE": "CCTV",
        "PROVINCE": "จังหวัดสงขลา",
        "COUNTRY": "ประเทศไทย",
        "IMAGEURL": "https://imgproxy.windy.com/_/preview/plain/current/1591521761/original.jpg?v=2",
        "WEBURL": "https://windy.com/webcams/1591521761",
        "PLAYERURL": "https://webcams.windy.com/webcams/public/embed/player/1591521761/day",
        "STATUS": "ONLINE",
        "NEAREST_ESTATE": "นิคมอุตสาหกรรมภาคใต้จังหวัดสงขลา",
        "DISTANCE_KM": 13.76,
        "LAST_UPDATED": "2026-09-29T11:23:51.000Z"
      },
      "geometry": {
        "type": "Point",
        "coordinates": [
          100.47996,
          6.97526
        ]
      }
    },
    {
      "type": "Feature",
      "properties": {
        "CAMERA": "คลองแห",
        "WEBCAM_ID": "1793910117",
        "TYPE": "CCTV",
        "PROVINCE": "จังหวัดสงขลา",
        "COUNTRY": "ประเทศไทย",
        "IMAGEURL": "https://imgproxy.windy.com/_/preview/plain/current/1793910117/original.jpg?v=2",
        "WEBURL": "https://windy.com/webcams/1793910117",
        "PLAYERURL": "https://webcams.windy.com/webcams/public/embed/player/1793910117/day",
        "STATUS": "ONLINE",
        "NEAREST_ESTATE": "นิคมอุตสาหกรรมภาคใต้จังหวัดสงขลา",
        "DISTANCE_KM": 15.59,
        "LAST_UPDATED": "2026-09-29T11:25:20.000Z"
      },
      "geometry": {
        "type": "Point",
        "coordinates": [
          100.43335,
          7.12794
        ]
      }
    },
    {
      "type": "Feature",
      "properties": {
        "CAMERA": "คลองแห",
        "WEBCAM_ID": "1793910116",
        "TYPE": "CCTV",
        "PROVINCE": "จังหวัดสงขลา",
        "COUNTRY": "ประเทศไทย",
        "IMAGEURL": "https://imgproxy.windy.com/_/preview/plain/current/1793910116/original.jpg?v=2",
        "WEBURL": "https://windy.com/webcams/1793910116",
        "PLAYERURL": "https://webcams.windy.com/webcams/public/embed/player/1793910116/day",
        "STATUS": "ONLINE",
        "NEAREST_ESTATE": "นิคมอุตสาหกรรมภาคใต้จังหวัดสงขลา",
        "DISTANCE_KM": 15.61,
        "LAST_UPDATED": "2026-09-29T11:25:51.000Z"
      },
      "geometry": {
        "type": "Point",
        "coordinates": [
          100.43376,
          7.12792
        ]
      }
    },
    {
      "type": "Feature",
      "properties": {
        "CAMERA": "คอหงส์",
        "WEBCAM_ID": "1701262836",
        "TYPE": "CCTV",
        "PROVINCE": "จังหวัดสงขลา",
        "COUNTRY": "ประเทศไทย",
        "IMAGEURL": "https://imgproxy.windy.com/_/preview/plain/current/1701262836/original.jpg?v=2",
        "WEBURL": "https://windy.com/webcams/1701262836",
        "PLAYERURL": "https://webcams.windy.com/webcams/public/embed/player/1701262836/day",
        "STATUS": "ONLINE",
        "NEAREST_ESTATE": "นิคมอุตสาหกรรมภาคใต้จังหวัดสงขลา",
        "DISTANCE_KM": 15.64,
        "LAST_UPDATED": "2026-09-29T11:23:49.000Z"
      },
      "geometry": {
        "type": "Point",
        "coordinates": [
          100.49686,
          6.97261
        ]
      }
    },
    {
      "type": "Feature",
      "properties": {
        "CAMERA": "คอหงส์",
        "WEBCAM_ID": "1703510795",
        "TYPE": "CCTV",
        "PROVINCE": "จังหวัดสงขลา",
        "COUNTRY": "ประเทศไทย",
        "IMAGEURL": "https://imgproxy.windy.com/_/preview/plain/current/1703510795/original.jpg?v=2",
        "WEBURL": "https://windy.com/webcams/1703510795",
        "PLAYERURL": "https://webcams.windy.com/webcams/public/embed/player/1703510795/day",
        "STATUS": "ONLINE",
        "NEAREST_ESTATE": "นิคมอุตสาหกรรมภาคใต้จังหวัดสงขลา",
        "DISTANCE_KM": 16.16,
        "LAST_UPDATED": "2026-09-29T11:23:48.000Z"
      },
      "geometry": {
        "type": "Point",
        "coordinates": [
          100.50195,
          6.97349
        ]
      }
    },
    {
      "type": "Feature",
      "properties": {
        "CAMERA": "คอหงส์",
        "WEBCAM_ID": "1701259609",
        "TYPE": "CCTV",
        "PROVINCE": "จังหวัดสงขลา",
        "COUNTRY": "ประเทศไทย",
        "IMAGEURL": "https://imgproxy.windy.com/_/preview/plain/current/1701259609/original.jpg?v=2",
        "WEBURL": "https://windy.com/webcams/1701259609",
        "PLAYERURL": "https://webcams.windy.com/webcams/public/embed/player/1701259609/day",
        "STATUS": "ONLINE",
        "NEAREST_ESTATE": "นิคมอุตสาหกรรมภาคใต้จังหวัดสงขลา",
        "DISTANCE_KM": 17.11,
        "LAST_UPDATED": "2026-09-29T11:24:06.000Z"
      },
      "geometry": {
        "type": "Point",
        "coordinates": [
          100.51412,
          6.99367
        ]
      }
    },
    {
      "type": "Feature",
      "properties": {
        "CAMERA": "ทุ่งลุง",
        "WEBCAM_ID": "1615558653",
        "TYPE": "CCTV",
        "PROVINCE": "จังหวัดสงขลา",
        "COUNTRY": "ประเทศไทย",
        "IMAGEURL": "https://imgproxy.windy.com/_/preview/plain/current/1615558653/original.jpg?v=2",
        "WEBURL": "https://windy.com/webcams/1615558653",
        "PLAYERURL": "https://webcams.windy.com/webcams/public/embed/player/1615558653/day",
        "STATUS": "ONLINE",
        "NEAREST_ESTATE": "นิคมอุตสาหกรรมภาคใต้จังหวัดสงขลา",
        "DISTANCE_KM": 20.97,
        "LAST_UPDATED": "2026-09-29T11:04:39.000Z"
      },
      "geometry": {
        "type": "Point",
        "coordinates": [
          100.47066,
          6.85506
        ]
      }
    },
    {
      "type": "Feature",
      "properties": {
        "CAMERA": "คลองแงะ: คลองพังลา",
        "WEBCAM_ID": "1352878356",
        "TYPE": "CCTV",
        "PROVINCE": "จังหวัดสงขลา",
        "COUNTRY": "ประเทศไทย",
        "IMAGEURL": "https://imgproxy.windy.com/_/preview/plain/current/1352878356/original.jpg?v=2",
        "WEBURL": "https://windy.com/webcams/1352878356",
        "PLAYERURL": "https://webcams.windy.com/webcams/public/embed/player/1352878356/day",
        "STATUS": "ONLINE",
        "NEAREST_ESTATE": "นิคมอุตสาหกรรมภาคใต้จังหวัดสงขลา",
        "DISTANCE_KM": 22.32,
        "LAST_UPDATED": "2026-09-29T11:24:07.000Z"
      },
      "geometry": {
        "type": "Point",
        "coordinates": [
          100.43842,
          6.82337
        ]
      }
    },
    {
      "type": "Feature",
      "properties": {
        "CAMERA": "คลองแงะ",
        "WEBCAM_ID": "1617853383",
        "TYPE": "CCTV",
        "PROVINCE": "จังหวัดสงขลา",
        "COUNTRY": "ประเทศไทย",
        "IMAGEURL": "https://imgproxy.windy.com/_/preview/plain/current/1617853383/original.jpg?v=2",
        "WEBURL": "https://windy.com/webcams/1617853383",
        "PLAYERURL": "https://webcams.windy.com/webcams/public/embed/player/1617853383/day",
        "STATUS": "ONLINE",
        "NEAREST_ESTATE": "นิคมอุตสาหกรรมภาคใต้จังหวัดสงขลา",
        "DISTANCE_KM": 24.56,
        "LAST_UPDATED": "2026-09-29T11:13:46.000Z"
      },
      "geometry": {
        "type": "Point",
        "coordinates": [
          100.49925,
          6.8361
        ]
      }
    },
    {
      "type": "Feature",
      "properties": {
        "CAMERA": "เขารูปช้าง: PTT Songkhla Petroleum",
        "WEBCAM_ID": "1793873395",
        "TYPE": "CCTV",
        "PROVINCE": "จังหวัดสงขลา",
        "COUNTRY": "ประเทศไทย",
        "IMAGEURL": "https://imgproxy.windy.com/_/preview/plain/current/1793873395/original.jpg?v=2",
        "WEBURL": "https://windy.com/webcams/1793873395",
        "PLAYERURL": "https://webcams.windy.com/webcams/public/embed/player/1793873395/day",
        "STATUS": "ONLINE",
        "NEAREST_ESTATE": "นิคมอุตสาหกรรมภาคใต้จังหวัดสงขลา",
        "DISTANCE_KM": 25.3,
        "LAST_UPDATED": "2026-09-29T11:25:28.000Z"
      },
      "geometry": {
        "type": "Point",
        "coordinates": [
          100.56844,
          7.10261
        ]
      }
    },
    {
      "type": "Feature",
      "properties": {
        "CAMERA": "กระจับ",
        "WEBCAM_ID": "1704367980",
        "TYPE": "CCTV",
        "PROVINCE": "จังหวัดราชบุรี",
        "COUNTRY": "ประเทศไทย",
        "IMAGEURL": "https://imgproxy.windy.com/_/preview/plain/current/1704367980/original.jpg?v=2",
        "WEBURL": "https://windy.com/webcams/1704367980",
        "PLAYERURL": "https://webcams.windy.com/webcams/public/embed/player/1704367980/day",
        "STATUS": "OFFLINE",
        "NEAREST_ESTATE": "นิคมอุตสาหกรรมราชบุรี",
        "DISTANCE_KM": 20.96,
        "LAST_UPDATED": "2026-09-28T11:13:44.000Z"
      },
      "geometry": {
        "type": "Point",
        "coordinates": [
          99.9554,
          13.7956
        ]
      }
    },
    {
      "type": "Feature",
      "properties": {
        "CAMERA": "ท่าจีน: Rama II Road",
        "WEBCAM_ID": "1717755647",
        "TYPE": "CCTV",
        "PROVINCE": "unknown",
        "COUNTRY": "ประเทศไทย",
        "IMAGEURL": "https://imgproxy.windy.com/_/preview/plain/current/1717755647/original.jpg?v=2",
        "WEBURL": "https://windy.com/webcams/1717755647",
        "PLAYERURL": "https://webcams.windy.com/webcams/public/embed/player/1717755647/day",
        "STATUS": "ONLINE",
        "NEAREST_ESTATE": "นิคมอุตสาหกรรมสมุทรสาคร",
        "DISTANCE_KM": 0.34,
        "LAST_UPDATED": "2026-09-29T11:24:19.000Z"
      },
      "geometry": {
        "type": "Point",
        "coordinates": [
          100.23434,
          13.54128
        ]
      }
    },
    {
      "type": "Feature",
      "properties": {
        "CAMERA": "ท่าจีน",
        "WEBCAM_ID": "1704279490",
        "TYPE": "CCTV",
        "PROVINCE": "unknown",
        "COUNTRY": "ประเทศไทย",
        "IMAGEURL": "https://imgproxy.windy.com/_/preview/plain/current/1704279490/original.jpg?v=2",
        "WEBURL": "https://windy.com/webcams/1704279490",
        "PLAYERURL": "https://webcams.windy.com/webcams/public/embed/player/1704279490/day",
        "STATUS": "ONLINE",
        "NEAREST_ESTATE": "นิคมอุตสาหกรรมสมุทรสาคร",
        "DISTANCE_KM": 0.35,
        "LAST_UPDATED": "2026-09-29T11:25:07.000Z"
      },
      "geometry": {
        "type": "Point",
        "coordinates": [
          100.2343,
          13.5412
        ]
      }
    },
    {
      "type": "Feature",
      "properties": {
        "CAMERA": "แขวงจอมพล: Vibhavadi Rangsit Road - Don Muang Toll Way",
        "WEBCAM_ID": "1717744769",
        "TYPE": "CCTV",
        "PROVINCE": "กรุงเทพมหานคร",
        "COUNTRY": "ประเทศไทย",
        "IMAGEURL": "https://imgproxy.windy.com/_/preview/plain/current/1717744769/original.jpg?v=2",
        "WEBURL": "https://windy.com/webcams/1717744769",
        "PLAYERURL": "https://webcams.windy.com/webcams/public/embed/player/1717744769/day",
        "STATUS": "OFFLINE",
        "NEAREST_ESTATE": "นิคมอุตสาหกรรมสำนักงานใหญ่ (วิภาวดี) ตึก A",
        "DISTANCE_KM": 0.11,
        "LAST_UPDATED": "2026-09-28T10:54:19.000Z"
      },
      "geometry": {
        "type": "Point",
        "coordinates": [
          100.56097,
          13.79744
        ]
      }
    },
    {
      "type": "Feature",
      "properties": {
        "CAMERA": "แขวงสามเสนใน: Vibhavadi Rangsit Road - Don Muang Toll Way",
        "WEBCAM_ID": "1717744643",
        "TYPE": "CCTV",
        "PROVINCE": "กรุงเทพมหานคร",
        "COUNTRY": "ประเทศไทย",
        "IMAGEURL": "https://imgproxy.windy.com/_/preview/plain/current/1717744643/original.jpg?v=2",
        "WEBURL": "https://windy.com/webcams/1717744643",
        "PLAYERURL": "https://webcams.windy.com/webcams/public/embed/player/1717744643/day",
        "STATUS": "OFFLINE",
        "NEAREST_ESTATE": "นิคมอุตสาหกรรมสำนักงานใหญ่ (วิภาวดี) ตึก A",
        "DISTANCE_KM": 0.9,
        "LAST_UPDATED": "2026-09-28T10:55:13.000Z"
      },
      "geometry": {
        "type": "Point",
        "coordinates": [
          100.56144,
          13.78931
        ]
      }
    },
    {
      "type": "Feature",
      "properties": {
        "CAMERA": "แขวงรัชดาภิเษก",
        "WEBCAM_ID": "1793910210",
        "TYPE": "CCTV",
        "PROVINCE": "กรุงเทพมหานคร",
        "COUNTRY": "ประเทศไทย",
        "IMAGEURL": "https://imgproxy.windy.com/_/preview/plain/current/1793910210/original.jpg?v=2",
        "WEBURL": "https://windy.com/webcams/1793910210",
        "PLAYERURL": "https://webcams.windy.com/webcams/public/embed/player/1793910210/day",
        "STATUS": "ONLINE",
        "NEAREST_ESTATE": "นิคมอุตสาหกรรมสำนักงานใหญ่ (วิภาวดี) ตึก A",
        "DISTANCE_KM": 1.16,
        "LAST_UPDATED": "2026-09-29T11:23:12.000Z"
      },
      "geometry": {
        "type": "Point",
        "coordinates": [
          100.57001,
          13.79345
        ]
      }
    },
    {
      "type": "Feature",
      "properties": {
        "CAMERA": "แขวงลาดยาว: Vibhavadi Rangsit Road - Don Muang Toll Way",
        "WEBCAM_ID": "1717746071",
        "TYPE": "CCTV",
        "PROVINCE": "กรุงเทพมหานคร",
        "COUNTRY": "ประเทศไทย",
        "IMAGEURL": "https://imgproxy.windy.com/_/preview/plain/current/1717746071/original.jpg?v=2",
        "WEBURL": "https://windy.com/webcams/1717746071",
        "PLAYERURL": "https://webcams.windy.com/webcams/public/embed/player/1717746071/day",
        "STATUS": "OFFLINE",
        "NEAREST_ESTATE": "นิคมอุตสาหกรรมสำนักงานใหญ่ (วิภาวดี) ตึก A",
        "DISTANCE_KM": 6.29,
        "LAST_UPDATED": "2026-09-28T10:49:46.000Z"
      },
      "geometry": {
        "type": "Point",
        "coordinates": [
          100.56481,
          13.85365
        ]
      }
    },
    {
      "type": "Feature",
      "properties": {
        "CAMERA": "แขวงตลาดบางเขน: Don Muang Toll Way - Vibhavadi Rangsit Road",
        "WEBCAM_ID": "1717746176",
        "TYPE": "CCTV",
        "PROVINCE": "กรุงเทพมหานคร",
        "COUNTRY": "ประเทศไทย",
        "IMAGEURL": "https://imgproxy.windy.com/_/preview/plain/current/1717746176/original.jpg?v=2",
        "WEBURL": "https://windy.com/webcams/1717746176",
        "PLAYERURL": "https://webcams.windy.com/webcams/public/embed/player/1717746176/day",
        "STATUS": "OFFLINE",
        "NEAREST_ESTATE": "นิคมอุตสาหกรรมสำนักงานใหญ่ (วิภาวดี) ตึก A",
        "DISTANCE_KM": 7.15,
        "LAST_UPDATED": "2026-09-28T10:55:23.000Z"
      },
      "geometry": {
        "type": "Point",
        "coordinates": [
          100.56878,
          13.86103
        ]
      }
    },
    {
      "type": "Feature",
      "properties": {
        "CAMERA": "แขวงคลองตันเหนือ",
        "WEBCAM_ID": "1735283843",
        "TYPE": "CCTV",
        "PROVINCE": "กรุงเทพมหานคร",
        "COUNTRY": "ประเทศไทย",
        "IMAGEURL": "https://imgproxy.windy.com/_/preview/plain/current/1735283843/original.jpg?v=2",
        "WEBURL": "https://windy.com/webcams/1735283843",
        "PLAYERURL": "https://webcams.windy.com/webcams/public/embed/player/1735283843/day",
        "STATUS": "OFFLINE",
        "NEAREST_ESTATE": "นิคมอุตสาหกรรมสำนักงานใหญ่ (วิภาวดี) ตึก A",
        "DISTANCE_KM": 7.74,
        "LAST_UPDATED": "2026-09-28T11:02:25.000Z"
      },
      "geometry": {
        "type": "Point",
        "coordinates": [
          100.58004,
          13.73046
        ]
      }
    },
    {
      "type": "Feature",
      "properties": {
        "CAMERA": "แขวงตลาดบางเขน: Don Muang Toll Way - Vibhavadi Rangsit Road",
        "WEBCAM_ID": "1717746260",
        "TYPE": "CCTV",
        "PROVINCE": "กรุงเทพมหานคร",
        "COUNTRY": "ประเทศไทย",
        "IMAGEURL": "https://imgproxy.windy.com/_/preview/plain/current/1717746260/original.jpg?v=2",
        "WEBURL": "https://windy.com/webcams/1717746260",
        "PLAYERURL": "https://webcams.windy.com/webcams/public/embed/player/1717746260/day",
        "STATUS": "OFFLINE",
        "NEAREST_ESTATE": "นิคมอุตสาหกรรมสำนักงานใหญ่ (วิภาวดี) ตึก A",
        "DISTANCE_KM": 8.12,
        "LAST_UPDATED": "2026-09-28T10:45:29.000Z"
      },
      "geometry": {
        "type": "Point",
        "coordinates": [
          100.5731,
          13.86922
        ]
      }
    },
    {
      "type": "Feature",
      "properties": {
        "CAMERA": "แขวงรัชดาภิเษก",
        "WEBCAM_ID": "1594821686",
        "TYPE": "CCTV",
        "PROVINCE": "กรุงเทพมหานคร",
        "COUNTRY": "ประเทศไทย",
        "IMAGEURL": "https://imgproxy.windy.com/_/preview/plain/current/1594821686/original.jpg?v=2",
        "WEBURL": "https://windy.com/webcams/1594821686",
        "PLAYERURL": "https://webcams.windy.com/webcams/public/embed/player/1594821686/day",
        "STATUS": "ONLINE",
        "NEAREST_ESTATE": "นิคมอุตสาหกรรมสำนักงานใหญ่ (วิภาวดี) ตึก A",
        "DISTANCE_KM": 8.6,
        "LAST_UPDATED": "2026-09-29T11:23:33.000Z"
      },
      "geometry": {
        "type": "Point",
        "coordinates": [
          100.55874,
          13.71996
        ]
      }
    },
    {
      "type": "Feature",
      "properties": {
        "CAMERA": "แขวงตลาดบางเขน: Don Muang Toll Way - Vibhavadi Rangsit Road",
        "WEBCAM_ID": "1717746512",
        "TYPE": "CCTV",
        "PROVINCE": "กรุงเทพมหานคร",
        "COUNTRY": "ประเทศไทย",
        "IMAGEURL": "https://imgproxy.windy.com/_/preview/plain/current/1717746512/original.jpg?v=2",
        "WEBURL": "https://windy.com/webcams/1717746512",
        "PLAYERURL": "https://webcams.windy.com/webcams/public/embed/player/1717746512/day",
        "STATUS": "OFFLINE",
        "NEAREST_ESTATE": "นิคมอุตสาหกรรมสำนักงานใหญ่ (วิภาวดี) ตึก A",
        "DISTANCE_KM": 9.07,
        "LAST_UPDATED": "2026-09-28T10:53:04.000Z"
      },
      "geometry": {
        "type": "Point",
        "coordinates": [
          100.57743,
          13.87707
        ]
      }
    },
    {
      "type": "Feature",
      "properties": {
        "CAMERA": "แขวงตลาดบางเขน: Don Muang Toll Way - Vibhavadi Rangsit Road",
        "WEBCAM_ID": "1717746596",
        "TYPE": "CCTV",
        "PROVINCE": "กรุงเทพมหานคร",
        "COUNTRY": "ประเทศไทย",
        "IMAGEURL": "https://imgproxy.windy.com/_/preview/plain/current/1717746596/original.jpg?v=2",
        "WEBURL": "https://windy.com/webcams/1717746596",
        "PLAYERURL": "https://webcams.windy.com/webcams/public/embed/player/1717746596/day",
        "STATUS": "OFFLINE",
        "NEAREST_ESTATE": "นิคมอุตสาหกรรมสำนักงานใหญ่ (วิภาวดี) ตึก A",
        "DISTANCE_KM": 9.8,
        "LAST_UPDATED": "2026-09-28T10:54:20.000Z"
      },
      "geometry": {
        "type": "Point",
        "coordinates": [
          100.58076,
          13.88307
        ]
      }
    },
    {
      "type": "Feature",
      "properties": {
        "CAMERA": "แขวงตลาดบางเขน: Don Muang Toll Way - Vibhavadi Rangsit Road",
        "WEBCAM_ID": "1717746743",
        "TYPE": "CCTV",
        "PROVINCE": "กรุงเทพมหานคร",
        "COUNTRY": "ประเทศไทย",
        "IMAGEURL": "https://imgproxy.windy.com/_/preview/plain/current/1717746743/original.jpg?v=2",
        "WEBURL": "https://windy.com/webcams/1717746743",
        "PLAYERURL": "https://webcams.windy.com/webcams/public/embed/player/1717746743/day",
        "STATUS": "OFFLINE",
        "NEAREST_ESTATE": "นิคมอุตสาหกรรมสำนักงานใหญ่ (วิภาวดี) ตึก A",
        "DISTANCE_KM": 10.11,
        "LAST_UPDATED": "2026-09-28T10:55:12.000Z"
      },
      "geometry": {
        "type": "Point",
        "coordinates": [
          100.58217,
          13.88567
        ]
      }
    },
    {
      "type": "Feature",
      "properties": {
        "CAMERA": "แขวงสนามบิน: Don Muang Toll Way - Vibhavadi Rangsit Road",
        "WEBCAM_ID": "1717746953",
        "TYPE": "CCTV",
        "PROVINCE": "กรุงเทพมหานคร",
        "COUNTRY": "ประเทศไทย",
        "IMAGEURL": "https://imgproxy.windy.com/_/preview/plain/current/1717746953/original.jpg?v=2",
        "WEBURL": "https://windy.com/webcams/1717746953",
        "PLAYERURL": "https://webcams.windy.com/webcams/public/embed/player/1717746953/day",
        "STATUS": "OFFLINE",
        "NEAREST_ESTATE": "นิคมอุตสาหกรรมสำนักงานใหญ่ (วิภาวดี) ตึก A",
        "DISTANCE_KM": 11.12,
        "LAST_UPDATED": "2026-09-28T10:55:09.000Z"
      },
      "geometry": {
        "type": "Point",
        "coordinates": [
          100.587,
          13.89382
        ]
      }
    },
    {
      "type": "Feature",
      "properties": {
        "CAMERA": "แขวงสนามบิน",
        "WEBCAM_ID": "1704429332",
        "TYPE": "CCTV",
        "PROVINCE": "กรุงเทพมหานคร",
        "COUNTRY": "ประเทศไทย",
        "IMAGEURL": "https://imgproxy.windy.com/_/preview/plain/current/1704429332/original.jpg?v=2",
        "WEBURL": "https://windy.com/webcams/1704429332",
        "PLAYERURL": "https://webcams.windy.com/webcams/public/embed/player/1704429332/day",
        "STATUS": "OFFLINE",
        "NEAREST_ESTATE": "นิคมอุตสาหกรรมสำนักงานใหญ่ (วิภาวดี) ตึก A",
        "DISTANCE_KM": 12.06,
        "LAST_UPDATED": "2026-09-28T10:54:30.000Z"
      },
      "geometry": {
        "type": "Point",
        "coordinates": [
          100.59083,
          13.90151
        ]
      }
    },
    {
      "type": "Feature",
      "properties": {
        "CAMERA": "แขวงสนามบิน: Don Muang Toll Way - Vibhavadi Rangsit Road",
        "WEBCAM_ID": "1717747185",
        "TYPE": "CCTV",
        "PROVINCE": "กรุงเทพมหานคร",
        "COUNTRY": "ประเทศไทย",
        "IMAGEURL": "https://imgproxy.windy.com/_/preview/plain/current/1717747185/original.jpg?v=2",
        "WEBURL": "https://windy.com/webcams/1717747185",
        "PLAYERURL": "https://webcams.windy.com/webcams/public/embed/player/1717747185/day",
        "STATUS": "OFFLINE",
        "NEAREST_ESTATE": "นิคมอุตสาหกรรมสำนักงานใหญ่ (วิภาวดี) ตึก A",
        "DISTANCE_KM": 12.87,
        "LAST_UPDATED": "2026-09-28T10:53:30.000Z"
      },
      "geometry": {
        "type": "Point",
        "coordinates": [
          100.59477,
          13.90804
        ]
      }
    },
    {
      "type": "Feature",
      "properties": {
        "CAMERA": "แขวงสนามบิน: Don Muang Toll Way - Vibhavadi Rangsit Road",
        "WEBCAM_ID": "1717747898",
        "TYPE": "CCTV",
        "PROVINCE": "กรุงเทพมหานคร",
        "COUNTRY": "ประเทศไทย",
        "IMAGEURL": "https://imgproxy.windy.com/_/preview/plain/current/1717747898/original.jpg?v=2",
        "WEBURL": "https://windy.com/webcams/1717747898",
        "PLAYERURL": "https://webcams.windy.com/webcams/public/embed/player/1717747898/day",
        "STATUS": "OFFLINE",
        "NEAREST_ESTATE": "นิคมอุตสาหกรรมสำนักงานใหญ่ (วิภาวดี) ตึก A",
        "DISTANCE_KM": 13.69,
        "LAST_UPDATED": "2026-09-28T10:53:51.000Z"
      },
      "geometry": {
        "type": "Point",
        "coordinates": [
          100.59824,
          13.91464
        ]
      }
    },
    {
      "type": "Feature",
      "properties": {
        "CAMERA": "แขวงสนามบิน: สนามบินดอนเมือง - Don Mueang International Airport",
        "WEBCAM_ID": "1649235596",
        "TYPE": "CCTV",
        "PROVINCE": "กรุงเทพมหานคร",
        "COUNTRY": "ประเทศไทย",
        "IMAGEURL": "https://imgproxy.windy.com/_/preview/plain/current/1649235596/original.jpg?v=2",
        "WEBURL": "https://windy.com/webcams/1649235596",
        "PLAYERURL": "https://webcams.windy.com/webcams/public/embed/player/1649235596/day",
        "STATUS": "OFFLINE",
        "NEAREST_ESTATE": "นิคมอุตสาหกรรมสำนักงานใหญ่ (วิภาวดี) ตึก A",
        "DISTANCE_KM": 14.04,
        "LAST_UPDATED": "2026-09-28T10:54:36.000Z"
      },
      "geometry": {
        "type": "Point",
        "coordinates": [
          100.59997,
          13.91742
        ]
      }
    },
    {
      "type": "Feature",
      "properties": {
        "CAMERA": "แขวงสนามบิน: Don Muang Toll Way - Vibhavadi Rangsit Road",
        "WEBCAM_ID": "1717748066",
        "TYPE": "CCTV",
        "PROVINCE": "กรุงเทพมหานคร",
        "COUNTRY": "ประเทศไทย",
        "IMAGEURL": "https://imgproxy.windy.com/_/preview/plain/current/1717748066/original.jpg?v=2",
        "WEBURL": "https://windy.com/webcams/1717748066",
        "PLAYERURL": "https://webcams.windy.com/webcams/public/embed/player/1717748066/day",
        "STATUS": "OFFLINE",
        "NEAREST_ESTATE": "นิคมอุตสาหกรรมสำนักงานใหญ่ (วิภาวดี) ตึก A",
        "DISTANCE_KM": 16.61,
        "LAST_UPDATED": "2026-09-28T10:53:19.000Z"
      },
      "geometry": {
        "type": "Point",
        "coordinates": [
          100.61166,
          13.93797
        ]
      }
    },
    {
      "type": "Feature",
      "properties": {
        "CAMERA": "รังสิต",
        "WEBCAM_ID": "1697620951",
        "TYPE": "CCTV",
        "PROVINCE": "จังหวัดปทุมธานี",
        "COUNTRY": "ประเทศไทย",
        "IMAGEURL": "https://imgproxy.windy.com/_/preview/plain/current/1697620951/original.jpg?v=2",
        "WEBURL": "https://windy.com/webcams/1697620951",
        "PLAYERURL": "https://webcams.windy.com/webcams/public/embed/player/1697620951/day",
        "STATUS": "ONLINE",
        "NEAREST_ESTATE": "นิคมอุตสาหกรรมสำนักงานใหญ่ (วิภาวดี) ตึก A",
        "DISTANCE_KM": 21.62,
        "LAST_UPDATED": "2026-09-29T11:25:34.000Z"
      },
      "geometry": {
        "type": "Point",
        "coordinates": [
          100.60475,
          13.98677
        ]
      }
    },
    {
      "type": "Feature",
      "properties": {
        "CAMERA": "รังสิต: Rangsit City Municipality Office",
        "WEBCAM_ID": "1731006038",
        "TYPE": "CCTV",
        "PROVINCE": "จังหวัดปทุมธานี",
        "COUNTRY": "ประเทศไทย",
        "IMAGEURL": "https://imgproxy.windy.com/_/preview/plain/current/1731006038/original.jpg?v=2",
        "WEBURL": "https://windy.com/webcams/1731006038",
        "PLAYERURL": "https://webcams.windy.com/webcams/public/embed/player/1731006038/day",
        "STATUS": "ONLINE",
        "NEAREST_ESTATE": "นิคมอุตสาหกรรมสำนักงานใหญ่ (วิภาวดี) ตึก A",
        "DISTANCE_KM": 21.76,
        "LAST_UPDATED": "2026-09-29T11:23:21.000Z"
      },
      "geometry": {
        "type": "Point",
        "coordinates": [
          100.60943,
          13.98705
        ]
      }
    },
    {
      "type": "Feature",
      "properties": {
        "CAMERA": "แขวงจตุจักร: Vibhavadi Rangsit Road - Don Muang Toll Way",
        "WEBCAM_ID": "1717745000",
        "TYPE": "CCTV",
        "PROVINCE": "กรุงเทพมหานคร",
        "COUNTRY": "ประเทศไทย",
        "IMAGEURL": "https://imgproxy.windy.com/_/preview/plain/current/1717745000/original.jpg?v=2",
        "WEBURL": "https://windy.com/webcams/1717745000",
        "PLAYERURL": "https://webcams.windy.com/webcams/public/embed/player/1717745000/day",
        "STATUS": "OFFLINE",
        "NEAREST_ESTATE": "นิคมอุตสาหกรรมสำนักงานใหญ่ (วิภาวดี) ตึก B",
        "DISTANCE_KM": 1.78,
        "LAST_UPDATED": "2026-09-28T10:54:01.000Z"
      },
      "geometry": {
        "type": "Point",
        "coordinates": [
          100.55945,
          13.81332
        ]
      }
    },
    {
      "type": "Feature",
      "properties": {
        "CAMERA": "แขวงสามเสนใน: Vibhavadi Rangsit Road - Don Muang Toll Way",
        "WEBCAM_ID": "1717744496",
        "TYPE": "CCTV",
        "PROVINCE": "กรุงเทพมหานคร",
        "COUNTRY": "ประเทศไทย",
        "IMAGEURL": "https://imgproxy.windy.com/_/preview/plain/current/1717744496/original.jpg?v=2",
        "WEBURL": "https://windy.com/webcams/1717744496",
        "PLAYERURL": "https://webcams.windy.com/webcams/public/embed/player/1717744496/day",
        "STATUS": "OFFLINE",
        "NEAREST_ESTATE": "นิคมอุตสาหกรรมสำนักงานใหญ่ (วิภาวดี) ตึก B",
        "DISTANCE_KM": 1.83,
        "LAST_UPDATED": "2026-09-28T10:53:33.000Z"
      },
      "geometry": {
        "type": "Point",
        "coordinates": [
          100.55735,
          13.781
        ]
      }
    },
    {
      "type": "Feature",
      "properties": {
        "CAMERA": "แขวงพญาไท: Sirat Expressway",
        "WEBCAM_ID": "1671473779",
        "TYPE": "CCTV",
        "PROVINCE": "กรุงเทพมหานคร",
        "COUNTRY": "ประเทศไทย",
        "IMAGEURL": "https://imgproxy.windy.com/_/preview/plain/current/1671473779/original.jpg?v=2",
        "WEBURL": "https://windy.com/webcams/1671473779",
        "PLAYERURL": "https://webcams.windy.com/webcams/public/embed/player/1671473779/day",
        "STATUS": "ONLINE",
        "NEAREST_ESTATE": "นิคมอุตสาหกรรมสำนักงานใหญ่ (วิภาวดี) ตึก B",
        "DISTANCE_KM": 2.13,
        "LAST_UPDATED": "2026-09-29T11:23:12.000Z"
      },
      "geometry": {
        "type": "Point",
        "coordinates": [
          100.53969,
          13.7949
        ]
      }
    },
    {
      "type": "Feature",
      "properties": {
        "CAMERA": "แขวงพญาไท",
        "WEBCAM_ID": "1671473910",
        "TYPE": "CCTV",
        "PROVINCE": "กรุงเทพมหานคร",
        "COUNTRY": "ประเทศไทย",
        "IMAGEURL": "https://imgproxy.windy.com/_/preview/plain/current/1671473910/original.jpg?v=2",
        "WEBURL": "https://windy.com/webcams/1671473910",
        "PLAYERURL": "https://webcams.windy.com/webcams/public/embed/player/1671473910/day",
        "STATUS": "ONLINE",
        "NEAREST_ESTATE": "นิคมอุตสาหกรรมสำนักงานใหญ่ (วิภาวดี) ตึก B",
        "DISTANCE_KM": 2.14,
        "LAST_UPDATED": "2026-09-29T11:24:09.000Z"
      },
      "geometry": {
        "type": "Point",
        "coordinates": [
          100.53966,
          13.79456
        ]
      }
    },
    {
      "type": "Feature",
      "properties": {
        "CAMERA": "แขวงสามเสนใน: Vibhavadi Rangsit Road - Don Muang Toll Way",
        "WEBCAM_ID": "1717744287",
        "TYPE": "CCTV",
        "PROVINCE": "กรุงเทพมหานคร",
        "COUNTRY": "ประเทศไทย",
        "IMAGEURL": "https://imgproxy.windy.com/_/preview/plain/current/1717744287/original.jpg?v=2",
        "WEBURL": "https://windy.com/webcams/1717744287",
        "PLAYERURL": "https://webcams.windy.com/webcams/public/embed/player/1717744287/day",
        "STATUS": "OFFLINE",
        "NEAREST_ESTATE": "นิคมอุตสาหกรรมสำนักงานใหญ่ (วิภาวดี) ตึก B",
        "DISTANCE_KM": 2.38,
        "LAST_UPDATED": "2026-09-28T10:53:18.000Z"
      },
      "geometry": {
        "type": "Point",
        "coordinates": [
          100.55499,
          13.77635
        ]
      }
    },
    {
      "type": "Feature",
      "properties": {
        "CAMERA": "แขวงจตุจักร: Vibhavadi Rangsit Road - Don Muang Toll Way",
        "WEBCAM_ID": "1717745126",
        "TYPE": "CCTV",
        "PROVINCE": "กรุงเทพมหานคร",
        "COUNTRY": "ประเทศไทย",
        "IMAGEURL": "https://imgproxy.windy.com/_/preview/plain/current/1717745126/original.jpg?v=2",
        "WEBURL": "https://windy.com/webcams/1717745126",
        "PLAYERURL": "https://webcams.windy.com/webcams/public/embed/player/1717745126/day",
        "STATUS": "OFFLINE",
        "NEAREST_ESTATE": "นิคมอุตสาหกรรมสำนักงานใหญ่ (วิภาวดี) ตึก B",
        "DISTANCE_KM": 2.4,
        "LAST_UPDATED": "2026-09-28T10:53:29.000Z"
      },
      "geometry": {
        "type": "Point",
        "coordinates": [
          100.55859,
          13.81888
        ]
      }
    },
    {
      "type": "Feature",
      "properties": {
        "CAMERA": "แขวงสามเสนใน",
        "WEBCAM_ID": "1704110941",
        "TYPE": "CCTV",
        "PROVINCE": "กรุงเทพมหานคร",
        "COUNTRY": "ประเทศไทย",
        "IMAGEURL": "https://imgproxy.windy.com/_/preview/plain/current/1704110941/original.jpg?v=2",
        "WEBURL": "https://windy.com/webcams/1704110941",
        "PLAYERURL": "https://webcams.windy.com/webcams/public/embed/player/1704110941/day",
        "STATUS": "OFFLINE",
        "NEAREST_ESTATE": "นิคมอุตสาหกรรมสำนักงานใหญ่ (วิภาวดี) ตึก B",
        "DISTANCE_KM": 2.88,
        "LAST_UPDATED": "2026-09-28T10:54:07.000Z"
      },
      "geometry": {
        "type": "Point",
        "coordinates": [
          100.55279,
          13.7722
        ]
      }
    },
    {
      "type": "Feature",
      "properties": {
        "CAMERA": "แขวงสามเสนใน",
        "WEBCAM_ID": "1681269446",
        "TYPE": "CCTV",
        "PROVINCE": "กรุงเทพมหานคร",
        "COUNTRY": "ประเทศไทย",
        "IMAGEURL": "https://imgproxy.windy.com/_/preview/plain/current/1681269446/original.jpg?v=2",
        "WEBURL": "https://windy.com/webcams/1681269446",
        "PLAYERURL": "https://webcams.windy.com/webcams/public/embed/player/1681269446/day",
        "STATUS": "OFFLINE",
        "NEAREST_ESTATE": "นิคมอุตสาหกรรมสำนักงานใหญ่ (วิภาวดี) ตึก B",
        "DISTANCE_KM": 2.88,
        "LAST_UPDATED": "2026-09-28T10:53:32.000Z"
      },
      "geometry": {
        "type": "Point",
        "coordinates": [
          100.55279,
          13.77221
        ]
      }
    },
    {
      "type": "Feature",
      "properties": {
        "CAMERA": "แขวงจตุจักร: Vibhavadi Rangsit Road - Don Muang Toll Way",
        "WEBCAM_ID": "1717745210",
        "TYPE": "CCTV",
        "PROVINCE": "กรุงเทพมหานคร",
        "COUNTRY": "ประเทศไทย",
        "IMAGEURL": "https://imgproxy.windy.com/_/preview/plain/current/1717745210/original.jpg?v=2",
        "WEBURL": "https://windy.com/webcams/1717745210",
        "PLAYERURL": "https://webcams.windy.com/webcams/public/embed/player/1717745210/day",
        "STATUS": "OFFLINE",
        "NEAREST_ESTATE": "นิคมอุตสาหกรรมสำนักงานใหญ่ (วิภาวดี) ตึก B",
        "DISTANCE_KM": 3.17,
        "LAST_UPDATED": "2026-09-28T10:54:39.000Z"
      },
      "geometry": {
        "type": "Point",
        "coordinates": [
          100.55805,
          13.82582
        ]
      }
    },
    {
      "type": "Feature",
      "properties": {
        "CAMERA": "แขวงลาดยาว: Vibhavadi Rangsit Road - Don Muang Toll Way",
        "WEBCAM_ID": "1717745273",
        "TYPE": "CCTV",
        "PROVINCE": "กรุงเทพมหานคร",
        "COUNTRY": "ประเทศไทย",
        "IMAGEURL": "https://imgproxy.windy.com/_/preview/plain/current/1717745273/original.jpg?v=2",
        "WEBURL": "https://windy.com/webcams/1717745273",
        "PLAYERURL": "https://webcams.windy.com/webcams/public/embed/player/1717745273/day",
        "STATUS": "OFFLINE",
        "NEAREST_ESTATE": "นิคมอุตสาหกรรมสำนักงานใหญ่ (วิภาวดี) ตึก B",
        "DISTANCE_KM": 4.15,
        "LAST_UPDATED": "2026-09-28T10:54:00.000Z"
      },
      "geometry": {
        "type": "Point",
        "coordinates": [
          100.55726,
          13.83463
        ]
      }
    },
    {
      "type": "Feature",
      "properties": {
        "CAMERA": "แขวงจตุจักร",
        "WEBCAM_ID": "1715574315",
        "TYPE": "CCTV",
        "PROVINCE": "กรุงเทพมหานคร",
        "COUNTRY": "ประเทศไทย",
        "IMAGEURL": "https://imgproxy.windy.com/_/preview/plain/current/1715574315/original.jpg?v=2",
        "WEBURL": "https://windy.com/webcams/1715574315",
        "PLAYERURL": "https://webcams.windy.com/webcams/public/embed/player/1715574315/day",
        "STATUS": "ONLINE",
        "NEAREST_ESTATE": "นิคมอุตสาหกรรมสำนักงานใหญ่ (วิภาวดี) ตึก B",
        "DISTANCE_KM": 4.26,
        "LAST_UPDATED": "2026-09-29T11:24:40.000Z"
      },
      "geometry": {
        "type": "Point",
        "coordinates": [
          100.5393,
          13.83038
        ]
      }
    },
    {
      "type": "Feature",
      "properties": {
        "CAMERA": "แขวงวงศ์สว่าง",
        "WEBCAM_ID": "1715947925",
        "TYPE": "CCTV",
        "PROVINCE": "กรุงเทพมหานคร",
        "COUNTRY": "ประเทศไทย",
        "IMAGEURL": "https://imgproxy.windy.com/_/preview/plain/current/1715947925/original.jpg?v=2",
        "WEBURL": "https://windy.com/webcams/1715947925",
        "PLAYERURL": "https://webcams.windy.com/webcams/public/embed/player/1715947925/day",
        "STATUS": "ONLINE",
        "NEAREST_ESTATE": "นิคมอุตสาหกรรมสำนักงานใหญ่ (วิภาวดี) ตึก B",
        "DISTANCE_KM": 4.31,
        "LAST_UPDATED": "2026-09-29T11:22:58.000Z"
      },
      "geometry": {
        "type": "Point",
        "coordinates": [
          100.53909,
          13.8308
        ]
      }
    },
    {
      "type": "Feature",
      "properties": {
        "CAMERA": "แขวงวงศ์สว่าง",
        "WEBCAM_ID": "1715607178",
        "TYPE": "CCTV",
        "PROVINCE": "กรุงเทพมหานคร",
        "COUNTRY": "ประเทศไทย",
        "IMAGEURL": "https://imgproxy.windy.com/_/preview/plain/current/1715607178/original.jpg?v=2",
        "WEBURL": "https://windy.com/webcams/1715607178",
        "PLAYERURL": "https://webcams.windy.com/webcams/public/embed/player/1715607178/day",
        "STATUS": "ONLINE",
        "NEAREST_ESTATE": "นิคมอุตสาหกรรมสำนักงานใหญ่ (วิภาวดี) ตึก B",
        "DISTANCE_KM": 4.35,
        "LAST_UPDATED": "2026-09-29T11:23:16.000Z"
      },
      "geometry": {
        "type": "Point",
        "coordinates": [
          100.53786,
          13.83051
        ]
      }
    },
    {
      "type": "Feature",
      "properties": {
        "CAMERA": "แขวงลาดยาว: Vibhavadi Rangsit Road - Don Muang Toll Way",
        "WEBCAM_ID": "1717745336",
        "TYPE": "CCTV",
        "PROVINCE": "กรุงเทพมหานคร",
        "COUNTRY": "ประเทศไทย",
        "IMAGEURL": "https://imgproxy.windy.com/_/preview/plain/current/1717745336/original.jpg?v=2",
        "WEBURL": "https://windy.com/webcams/1717745336",
        "PLAYERURL": "https://webcams.windy.com/webcams/public/embed/player/1717745336/day",
        "STATUS": "OFFLINE",
        "NEAREST_ESTATE": "นิคมอุตสาหกรรมสำนักงานใหญ่ (วิภาวดี) ตึก B",
        "DISTANCE_KM": 4.49,
        "LAST_UPDATED": "2026-09-28T10:53:23.000Z"
      },
      "geometry": {
        "type": "Point",
        "coordinates": [
          100.55732,
          13.83772
        ]
      }
    },
    {
      "type": "Feature",
      "properties": {
        "CAMERA": "แขวงวงศ์สว่าง",
        "WEBCAM_ID": "1671471857",
        "TYPE": "CCTV",
        "PROVINCE": "กรุงเทพมหานคร",
        "COUNTRY": "ประเทศไทย",
        "IMAGEURL": "https://imgproxy.windy.com/_/preview/plain/current/1671471857/original.jpg?v=2",
        "WEBURL": "https://windy.com/webcams/1671471857",
        "PLAYERURL": "https://webcams.windy.com/webcams/public/embed/player/1671471857/day",
        "STATUS": "ONLINE",
        "NEAREST_ESTATE": "นิคมอุตสาหกรรมสำนักงานใหญ่ (วิภาวดี) ตึก B",
        "DISTANCE_KM": 4.78,
        "LAST_UPDATED": "2026-09-29T11:23:16.000Z"
      },
      "geometry": {
        "type": "Point",
        "coordinates": [
          100.52796,
          13.82774
        ]
      }
    },
    {
      "type": "Feature",
      "properties": {
        "CAMERA": "แขวงวงศ์สว่าง",
        "WEBCAM_ID": "1715574776",
        "TYPE": "CCTV",
        "PROVINCE": "กรุงเทพมหานคร",
        "COUNTRY": "ประเทศไทย",
        "IMAGEURL": "https://imgproxy.windy.com/_/preview/plain/current/1715574776/original.jpg?v=2",
        "WEBURL": "https://windy.com/webcams/1715574776",
        "PLAYERURL": "https://webcams.windy.com/webcams/public/embed/player/1715574776/day",
        "STATUS": "ONLINE",
        "NEAREST_ESTATE": "นิคมอุตสาหกรรมสำนักงานใหญ่ (วิภาวดี) ตึก B",
        "DISTANCE_KM": 4.85,
        "LAST_UPDATED": "2026-09-29T11:23:58.000Z"
      },
      "geometry": {
        "type": "Point",
        "coordinates": [
          100.52797,
          13.82861
        ]
      }
    },
    {
      "type": "Feature",
      "properties": {
        "CAMERA": "แขวงวงศ์สว่าง",
        "WEBCAM_ID": "1671471694",
        "TYPE": "CCTV",
        "PROVINCE": "กรุงเทพมหานคร",
        "COUNTRY": "ประเทศไทย",
        "IMAGEURL": "https://imgproxy.windy.com/_/preview/plain/current/1671471694/original.jpg?v=2",
        "WEBURL": "https://windy.com/webcams/1671471694",
        "PLAYERURL": "https://webcams.windy.com/webcams/public/embed/player/1671471694/day",
        "STATUS": "ONLINE",
        "NEAREST_ESTATE": "นิคมอุตสาหกรรมสำนักงานใหญ่ (วิภาวดี) ตึก B",
        "DISTANCE_KM": 4.87,
        "LAST_UPDATED": "2026-09-29T11:24:54.000Z"
      },
      "geometry": {
        "type": "Point",
        "coordinates": [
          100.52777,
          13.82869
        ]
      }
    },
    {
      "type": "Feature",
      "properties": {
        "CAMERA": "แขวงลาดยาว: Vibhavadi Rangsit Road - Don Muang Toll Way",
        "WEBCAM_ID": "1717745903",
        "TYPE": "CCTV",
        "PROVINCE": "กรุงเทพมหานคร",
        "COUNTRY": "ประเทศไทย",
        "IMAGEURL": "https://imgproxy.windy.com/_/preview/plain/current/1717745903/original.jpg?v=2",
        "WEBURL": "https://windy.com/webcams/1717745903",
        "PLAYERURL": "https://webcams.windy.com/webcams/public/embed/player/1717745903/day",
        "STATUS": "OFFLINE",
        "NEAREST_ESTATE": "นิคมอุตสาหกรรมสำนักงานใหญ่ (วิภาวดี) ตึก B",
        "DISTANCE_KM": 5.26,
        "LAST_UPDATED": "2026-09-28T10:45:48.000Z"
      },
      "geometry": {
        "type": "Point",
        "coordinates": [
          100.55981,
          13.84467
        ]
      }
    },
    {
      "type": "Feature",
      "properties": {
        "CAMERA": "แขวงคลองขวาง: Phayathai, Bangkok",
        "WEBCAM_ID": "1302885774",
        "TYPE": "CCTV",
        "PROVINCE": "กรุงเทพมหานคร",
        "COUNTRY": "ประเทศไทย",
        "IMAGEURL": "https://imgproxy.windy.com/_/preview/plain/current/1302885774/original.jpg?v=2",
        "WEBURL": "https://windy.com/webcams/1302885774",
        "PLAYERURL": "https://webcams.windy.com/webcams/public/embed/player/1302885774/day",
        "STATUS": "ONLINE",
        "NEAREST_ESTATE": "นิคมอุตสาหกรรมสำนักงานใหญ่ (วิภาวดี) ตึก B",
        "DISTANCE_KM": 5.53,
        "LAST_UPDATED": "2026-09-29T11:23:49.000Z"
      },
      "geometry": {
        "type": "Point",
        "coordinates": [
          100.52564,
          13.75985
        ]
      }
    },
    {
      "type": "Feature",
      "properties": {
        "CAMERA": "แขวงลาดยาว",
        "WEBCAM_ID": "1687081689",
        "TYPE": "CCTV",
        "PROVINCE": "กรุงเทพมหานคร",
        "COUNTRY": "ประเทศไทย",
        "IMAGEURL": "https://imgproxy.windy.com/_/preview/plain/current/1687081689/original.jpg?v=2",
        "WEBURL": "https://windy.com/webcams/1687081689",
        "PLAYERURL": "https://webcams.windy.com/webcams/public/embed/player/1687081689/day",
        "STATUS": "OFFLINE",
        "NEAREST_ESTATE": "นิคมอุตสาหกรรมสำนักงานใหญ่ (วิภาวดี) ตึก B",
        "DISTANCE_KM": 5.72,
        "LAST_UPDATED": "2026-09-28T10:52:57.000Z"
      },
      "geometry": {
        "type": "Point",
        "coordinates": [
          100.56199,
          13.84871
        ]
      }
    },
    {
      "type": "Feature",
      "properties": {
        "CAMERA": "แขวงลุมพินี",
        "WEBCAM_ID": "1671468630",
        "TYPE": "CCTV",
        "PROVINCE": "กรุงเทพมหานคร",
        "COUNTRY": "ประเทศไทย",
        "IMAGEURL": "https://imgproxy.windy.com/_/preview/plain/current/1671468630/original.jpg?v=2",
        "WEBURL": "https://windy.com/webcams/1671468630",
        "PLAYERURL": "https://webcams.windy.com/webcams/public/embed/player/1671468630/day",
        "STATUS": "ONLINE",
        "NEAREST_ESTATE": "นิคมอุตสาหกรรมสำนักงานใหญ่ (วิภาวดี) ตึก B",
        "DISTANCE_KM": 8.3,
        "LAST_UPDATED": "2026-09-29T11:24:50.000Z"
      },
      "geometry": {
        "type": "Point",
        "coordinates": [
          100.55211,
          13.72302
        ]
      }
    },
    {
      "type": "Feature",
      "properties": {
        "CAMERA": "แขวงทุ่งมหาเมฆ: ิbangkok",
        "WEBCAM_ID": "1567917670",
        "TYPE": "CCTV",
        "PROVINCE": "กรุงเทพมหานคร",
        "COUNTRY": "ประเทศไทย",
        "IMAGEURL": "https://imgproxy.windy.com/_/preview/plain/current/1567917670/original.jpg?v=2",
        "WEBURL": "https://windy.com/webcams/1567917670",
        "PLAYERURL": "https://webcams.windy.com/webcams/public/embed/player/1567917670/day",
        "STATUS": "ONLINE",
        "NEAREST_ESTATE": "นิคมอุตสาหกรรมสำนักงานใหญ่ (วิภาวดี) ตึก B",
        "DISTANCE_KM": 8.34,
        "LAST_UPDATED": "2026-09-29T11:23:10.000Z"
      },
      "geometry": {
        "type": "Point",
        "coordinates": [
          100.55248,
          13.72259
        ]
      }
    },
    {
      "type": "Feature",
      "properties": {
        "CAMERA": "แขวงทุ่งมหาเมฆ",
        "WEBCAM_ID": "1671472371",
        "TYPE": "CCTV",
        "PROVINCE": "กรุงเทพมหานคร",
        "COUNTRY": "ประเทศไทย",
        "IMAGEURL": "https://imgproxy.windy.com/_/preview/plain/current/1671472371/original.jpg?v=2",
        "WEBURL": "https://windy.com/webcams/1671472371",
        "PLAYERURL": "https://webcams.windy.com/webcams/public/embed/player/1671472371/day",
        "STATUS": "ONLINE",
        "NEAREST_ESTATE": "นิคมอุตสาหกรรมสำนักงานใหญ่ (วิภาวดี) ตึก B",
        "DISTANCE_KM": 8.35,
        "LAST_UPDATED": "2026-09-29T11:23:12.000Z"
      },
      "geometry": {
        "type": "Point",
        "coordinates": [
          100.54129,
          13.72433
        ]
      }
    },
    {
      "type": "Feature",
      "properties": {
        "CAMERA": "แขวงคลองขวาง: Ramkhamhaeng, Bangkok 2",
        "WEBCAM_ID": "1302885716",
        "TYPE": "CCTV",
        "PROVINCE": "กรุงเทพมหานคร",
        "COUNTRY": "ประเทศไทย",
        "IMAGEURL": "https://imgproxy.windy.com/_/preview/plain/current/1302885716/original.jpg?v=2",
        "WEBURL": "https://windy.com/webcams/1302885716",
        "PLAYERURL": "https://webcams.windy.com/webcams/public/embed/player/1302885716/day",
        "STATUS": "ONLINE",
        "NEAREST_ESTATE": "นิคมอุตสาหกรรมสำนักงานใหญ่ (วิภาวดี) ตึก B",
        "DISTANCE_KM": 9.22,
        "LAST_UPDATED": "2026-09-29T11:23:56.000Z"
      },
      "geometry": {
        "type": "Point",
        "coordinates": [
          100.51743,
          13.72511
        ]
      }
    },
    {
      "type": "Feature",
      "properties": {
        "CAMERA": "แขวงสีลม › ตะวันตก: North Sathon Road - Saphan Taksin Public Park",
        "WEBCAM_ID": "1302885744",
        "TYPE": "CCTV",
        "PROVINCE": "กรุงเทพมหานคร",
        "COUNTRY": "ประเทศไทย",
        "IMAGEURL": "https://imgproxy.windy.com/_/preview/plain/current/1302885744/original.jpg?v=2",
        "WEBURL": "https://windy.com/webcams/1302885744",
        "PLAYERURL": "https://webcams.windy.com/webcams/public/embed/player/1302885744/day",
        "STATUS": "ONLINE",
        "NEAREST_ESTATE": "นิคมอุตสาหกรรมสำนักงานใหญ่ (วิภาวดี) ตึก B",
        "DISTANCE_KM": 9.93,
        "LAST_UPDATED": "2026-09-29T11:23:10.000Z"
      },
      "geometry": {
        "type": "Point",
        "coordinates": [
          100.51608,
          13.71852
        ]
      }
    },
    {
      "type": "Feature",
      "properties": {
        "CAMERA": "แขวงสีลม: Makkasan, Bangkok",
        "WEBCAM_ID": "1302885568",
        "TYPE": "CCTV",
        "PROVINCE": "กรุงเทพมหานคร",
        "COUNTRY": "ประเทศไทย",
        "IMAGEURL": "https://imgproxy.windy.com/_/preview/plain/current/1302885568/original.jpg?v=2",
        "WEBURL": "https://windy.com/webcams/1302885568",
        "PLAYERURL": "https://webcams.windy.com/webcams/public/embed/player/1302885568/day",
        "STATUS": "ONLINE",
        "NEAREST_ESTATE": "นิคมอุตสาหกรรมสำนักงานใหญ่ (วิภาวดี) ตึก B",
        "DISTANCE_KM": 9.93,
        "LAST_UPDATED": "2026-09-29T11:23:30.000Z"
      },
      "geometry": {
        "type": "Point",
        "coordinates": [
          100.51593,
          13.71863
        ]
      }
    },
    {
      "type": "Feature",
      "properties": {
        "CAMERA": "แขวงคลองขวาง: Rama IX Exit, Bangkok",
        "WEBCAM_ID": "1302885713",
        "TYPE": "CCTV",
        "PROVINCE": "กรุงเทพมหานคร",
        "COUNTRY": "ประเทศไทย",
        "IMAGEURL": "https://imgproxy.windy.com/_/preview/plain/current/1302885713/original.jpg?v=2",
        "WEBURL": "https://windy.com/webcams/1302885713",
        "PLAYERURL": "https://webcams.windy.com/webcams/public/embed/player/1302885713/day",
        "STATUS": "ONLINE",
        "NEAREST_ESTATE": "นิคมอุตสาหกรรมสำนักงานใหญ่ (วิภาวดี) ตึก B",
        "DISTANCE_KM": 10.18,
        "LAST_UPDATED": "2026-09-29T11:25:03.000Z"
      },
      "geometry": {
        "type": "Point",
        "coordinates": [
          100.52029,
          13.71402
        ]
      }
    },
    {
      "type": "Feature",
      "properties": {
        "CAMERA": "คอกกระบือ: Rama II Road",
        "WEBCAM_ID": "1717755038",
        "TYPE": "CCTV",
        "PROVINCE": "unknown",
        "COUNTRY": "ประเทศไทย",
        "IMAGEURL": "https://imgproxy.windy.com/_/preview/plain/current/1717755038/original.jpg?v=2",
        "WEBURL": "https://windy.com/webcams/1717755038",
        "PLAYERURL": "https://webcams.windy.com/webcams/public/embed/player/1717755038/day",
        "STATUS": "ONLINE",
        "NEAREST_ESTATE": "นิคมอุตสาหกรรมสินสาคร",
        "DISTANCE_KM": 5.03,
        "LAST_UPDATED": "2026-09-29T11:23:24.000Z"
      },
      "geometry": {
        "type": "Point",
        "coordinates": [
          100.32683,
          13.58871
        ]
      }
    },
    {
      "type": "Feature",
      "properties": {
        "CAMERA": "คอกกระบือ: Rama II Road",
        "WEBCAM_ID": "1717754996",
        "TYPE": "CCTV",
        "PROVINCE": "unknown",
        "COUNTRY": "ประเทศไทย",
        "IMAGEURL": "https://imgproxy.windy.com/_/preview/plain/current/1717754996/original.jpg?v=2",
        "WEBURL": "https://windy.com/webcams/1717754996",
        "PLAYERURL": "https://webcams.windy.com/webcams/public/embed/player/1717754996/day",
        "STATUS": "ONLINE",
        "NEAREST_ESTATE": "นิคมอุตสาหกรรมสินสาคร",
        "DISTANCE_KM": 5.03,
        "LAST_UPDATED": "2026-09-29T11:23:51.000Z"
      },
      "geometry": {
        "type": "Point",
        "coordinates": [
          100.32683,
          13.58871
        ]
      }
    },
    {
      "type": "Feature",
      "properties": {
        "CAMERA": "คอกกระบือ: Rama II Road",
        "WEBCAM_ID": "1717754933",
        "TYPE": "CCTV",
        "PROVINCE": "unknown",
        "COUNTRY": "ประเทศไทย",
        "IMAGEURL": "https://imgproxy.windy.com/_/preview/plain/current/1717754933/original.jpg?v=2",
        "WEBURL": "https://windy.com/webcams/1717754933",
        "PLAYERURL": "https://webcams.windy.com/webcams/public/embed/player/1717754933/day",
        "STATUS": "ONLINE",
        "NEAREST_ESTATE": "นิคมอุตสาหกรรมสินสาคร",
        "DISTANCE_KM": 5.06,
        "LAST_UPDATED": "2026-09-29T11:23:59.000Z"
      },
      "geometry": {
        "type": "Point",
        "coordinates": [
          100.33178,
          13.59059
        ]
      }
    },
    {
      "type": "Feature",
      "properties": {
        "CAMERA": "คอกกระบือ: Rama II Road",
        "WEBCAM_ID": "1717754828",
        "TYPE": "CCTV",
        "PROVINCE": "unknown",
        "COUNTRY": "ประเทศไทย",
        "IMAGEURL": "https://imgproxy.windy.com/_/preview/plain/current/1717754828/original.jpg?v=2",
        "WEBURL": "https://windy.com/webcams/1717754828",
        "PLAYERURL": "https://webcams.windy.com/webcams/public/embed/player/1717754828/day",
        "STATUS": "ONLINE",
        "NEAREST_ESTATE": "นิคมอุตสาหกรรมสินสาคร",
        "DISTANCE_KM": 5.27,
        "LAST_UPDATED": "2026-09-29T11:23:47.000Z"
      },
      "geometry": {
        "type": "Point",
        "coordinates": [
          100.35543,
          13.59255
        ]
      }
    },
    {
      "type": "Feature",
      "properties": {
        "CAMERA": "บ้านเพ › ใต้: White stone - Mae Ram Phueng Beach",
        "WEBCAM_ID": "1690597536",
        "TYPE": "CCTV",
        "PROVINCE": "จังหวัดระยอง",
        "COUNTRY": "ประเทศไทย",
        "IMAGEURL": "https://imgproxy.windy.com/_/preview/plain/current/1690597536/original.jpg?v=2",
        "WEBURL": "https://windy.com/webcams/1690597536",
        "PLAYERURL": "https://webcams.windy.com/webcams/public/embed/player/1690597536/day",
        "STATUS": "ONLINE",
        "NEAREST_ESTATE": "นิคมอุตสาหกรรมหลักชัยเมืองยาง",
        "DISTANCE_KM": 15.11,
        "LAST_UPDATED": "2026-09-29T11:22:38.000Z"
      },
      "geometry": {
        "type": "Point",
        "coordinates": [
          101.38415,
          12.61092
        ]
      }
    },
    {
      "type": "Feature",
      "properties": {
        "CAMERA": "แสนสุข › ตะวันตก",
        "WEBCAM_ID": "1667133322",
        "TYPE": "CCTV",
        "PROVINCE": "จังหวัดชลบุรี",
        "COUNTRY": "ประเทศไทย",
        "IMAGEURL": "https://imgproxy.windy.com/_/preview/plain/current/1667133322/original.jpg?v=2",
        "WEBURL": "https://windy.com/webcams/1667133322",
        "PLAYERURL": "https://webcams.windy.com/webcams/public/embed/player/1667133322/day",
        "STATUS": "ONLINE",
        "NEAREST_ESTATE": "นิคมอุตสาหกรรมอมตะซิตี้ ชลบุรี",
        "DISTANCE_KM": 17.6,
        "LAST_UPDATED": "2026-09-29T11:20:41.000Z"
      },
      "geometry": {
        "type": "Point",
        "coordinates": [
          100.89929,
          13.30049
        ]
      }
    },
    {
      "type": "Feature",
      "properties": {
        "CAMERA": "แขวงบางนาใต้: Phayathai, Bangkok 2",
        "WEBCAM_ID": "1302885768",
        "TYPE": "CCTV",
        "PROVINCE": "กรุงเทพมหานคร",
        "COUNTRY": "ประเทศไทย",
        "IMAGEURL": "https://imgproxy.windy.com/_/preview/plain/current/1302885768/original.jpg?v=2",
        "WEBURL": "https://windy.com/webcams/1302885768",
        "PLAYERURL": "https://webcams.windy.com/webcams/public/embed/player/1302885768/day",
        "STATUS": "ONLINE",
        "NEAREST_ESTATE": "นิคมอุตสาหกรรมอัญธานี",
        "DISTANCE_KM": 7.64,
        "LAST_UPDATED": "2026-09-29T11:23:39.000Z"
      },
      "geometry": {
        "type": "Point",
        "coordinates": [
          100.63994,
          13.66665
        ]
      }
    },
    {
      "type": "Feature",
      "properties": {
        "CAMERA": "เขาหินซ้อน: Chachoengsao-Kabinburi Road - Asian Highway 19 - กบินทร์บุรี - ฉะเชิงเทรา ถนน",
        "WEBCAM_ID": "1717792335",
        "TYPE": "CCTV",
        "PROVINCE": "จังหวัดฉะเชิงเทรา",
        "COUNTRY": "ประเทศไทย",
        "IMAGEURL": "https://imgproxy.windy.com/_/preview/plain/current/1717792335/original.jpg?v=2",
        "WEBURL": "https://windy.com/webcams/1717792335",
        "PLAYERURL": "https://webcams.windy.com/webcams/public/embed/player/1717792335/day",
        "STATUS": "OFFLINE",
        "NEAREST_ESTATE": "นิคมอุตสาหกรรมเกตเวย์ ซิตี้",
        "DISTANCE_KM": 22.54,
        "LAST_UPDATED": "2026-09-28T11:14:34.000Z"
      },
      "geometry": {
        "type": "Point",
        "coordinates": [
          101.48957,
          13.74484
        ]
      }
    },
    {
      "type": "Feature",
      "properties": {
        "CAMERA": "พลา: Phayun Beach",
        "WEBCAM_ID": "1525007685",
        "TYPE": "CCTV",
        "PROVINCE": "จังหวัดระยอง",
        "COUNTRY": "ประเทศไทย",
        "IMAGEURL": "https://imgproxy.windy.com/_/preview/plain/current/1525007685/original.jpg?v=2",
        "WEBURL": "https://windy.com/webcams/1525007685",
        "PLAYERURL": "https://webcams.windy.com/webcams/public/embed/player/1525007685/day",
        "STATUS": "ONLINE",
        "NEAREST_ESTATE": "นิคมอุตสาหกรรมเอเชีย",
        "DISTANCE_KM": 6.23,
        "LAST_UPDATED": "2026-09-29T11:23:12.000Z"
      },
      "geometry": {
        "type": "Point",
        "coordinates": [
          101.06729,
          12.67501
        ]
      }
    },
    {
      "type": "Feature",
      "properties": {
        "CAMERA": "หน้าพระลาน: ซอย 21 - O Bo To Phetchabun 2137 Road - Thanon Saeaburi - Lomsak - Saraburi - Lom Sak Road - National Highway 21",
        "WEBCAM_ID": "1718372522",
        "TYPE": "CCTV",
        "PROVINCE": "จังหวัดสระบุรี",
        "COUNTRY": "ประเทศไทย",
        "IMAGEURL": "https://imgproxy.windy.com/_/preview/plain/current/1718372522/original.jpg?v=2",
        "WEBURL": "https://windy.com/webcams/1718372522",
        "PLAYERURL": "https://webcams.windy.com/webcams/public/embed/player/1718372522/day",
        "STATUS": "OFFLINE",
        "NEAREST_ESTATE": "นิคมอุตสาหกรรมแก่งคอย",
        "DISTANCE_KM": 15.65,
        "LAST_UPDATED": "2026-09-28T11:15:05.000Z"
      },
      "geometry": {
        "type": "Point",
        "coordinates": [
          100.90505,
          14.72402
        ]
      }
    },
    {
      "type": "Feature",
      "properties": {
        "CAMERA": "มวกเหล็ก: Mittraphap Road - Thanon Mittraphap",
        "WEBCAM_ID": "1717830743",
        "TYPE": "CCTV",
        "PROVINCE": "จังหวัดสระบุรี",
        "COUNTRY": "ประเทศไทย",
        "IMAGEURL": "https://imgproxy.windy.com/_/preview/plain/current/1717830743/original.jpg?v=2",
        "WEBURL": "https://windy.com/webcams/1717830743",
        "PLAYERURL": "https://webcams.windy.com/webcams/public/embed/player/1717830743/day",
        "STATUS": "OFFLINE",
        "NEAREST_ESTATE": "นิคมอุตสาหกรรมแก่งคอย",
        "DISTANCE_KM": 21.12,
        "LAST_UPDATED": "2026-09-28T11:13:27.000Z"
      },
      "geometry": {
        "type": "Point",
        "coordinates": [
          101.20402,
          14.63606
        ]
      }
    },
    {
      "type": "Feature",
      "properties": {
        "CAMERA": "เขาหินซ้อน: 304 - Asian Highway 19",
        "WEBCAM_ID": "1717792670",
        "TYPE": "CCTV",
        "PROVINCE": "จังหวัดฉะเชิงเทรา",
        "COUNTRY": "ประเทศไทย",
        "IMAGEURL": "https://imgproxy.windy.com/_/preview/plain/current/1717792670/original.jpg?v=2",
        "WEBURL": "https://windy.com/webcams/1717792670",
        "PLAYERURL": "https://webcams.windy.com/webcams/public/embed/player/1717792670/day",
        "STATUS": "OFFLINE",
        "NEAREST_ESTATE": "นิคมอุตสาหกรรมไฮเทค กบินทร์",
        "DISTANCE_KM": 19.59,
        "LAST_UPDATED": "2026-09-28T11:15:14.000Z"
      },
      "geometry": {
        "type": "Point",
        "coordinates": [
          101.52543,
          13.78079
        ]
      }
    },
    {
      "type": "Feature",
      "properties": {
        "CAMERA": "เขาหินซ้อน: Asian Highway 19",
        "WEBCAM_ID": "1717792460",
        "TYPE": "CCTV",
        "PROVINCE": "จังหวัดฉะเชิงเทรา",
        "COUNTRY": "ประเทศไทย",
        "IMAGEURL": "https://imgproxy.windy.com/_/preview/plain/current/1717792460/original.jpg?v=2",
        "WEBURL": "https://windy.com/webcams/1717792460",
        "PLAYERURL": "https://webcams.windy.com/webcams/public/embed/player/1717792460/day",
        "STATUS": "OFFLINE",
        "NEAREST_ESTATE": "นิคมอุตสาหกรรมไฮเทค กบินทร์",
        "DISTANCE_KM": 21.51,
        "LAST_UPDATED": "2026-09-28T11:14:06.000Z"
      },
      "geometry": {
        "type": "Point",
        "coordinates": [
          101.51745,
          13.76432
        ]
      }
    }
  ]
}
